Company ID,Company Name,Branch ID,Street Address,City,State,Postal Code,License Number,License Name
2280,21st Mortgage Corporation,,620 Market Street ,Knoxville,TN,37902,DC2280,MA Debt Collector
2280,21st Mortgage Corporation,1675234,10208 Technology Drive ,Knoxville,TN,37932,DC2280,MA Debt Collector
937594,"A.R.M. Solutions, Inc.",,"2455 Teller Road, Suite 150 ",Thousand Oaks,CA,91320,DC937594,MA Debt Collector
1033955,"Ability Recovery Services, LLC",,284 Main Street ,Dupont,PA,18641,DC1033955,MA Debt Collector
952162,Accenture Solutions Private Limited,,"PLANT 3, GODREJ & BOYCE COMPLEX LBS MARG, VIKHROLI (WEST)",Mumbai,,400079,DC1131,MA Debt Collector
952162,Accenture Solutions Private Limited,1608592,"4th Floor, Tower II of Phase II, Logitech Park Andheri Kurla Road, Andheri (East)",Mumbai,,400072,DC952162,MA Debt Collector
934276,Accounts Receivable Technologies Inc.,,10 Wills Way Building 3,Piscataway,NJ,08854,DC112045-100,MA Debt Collector
931957,"Action Collection Agencies, Inc.",,16 Commerce Blvd. Unit 4,Middleboro,MA,02346,DC0012,MA Debt Collector
988275,"Adler Wallach & Associates, Inc.",,1045 W. Katella Ave. Suite 230,Orange,CA,92867,DC988275,MA Debt Collector
1103081,Admin Recovery LLC,,6225 Sheridan Drive Suite 118,Williamsville,NY,14221,DC1103081,MA Debt Collector
3078,"Advanced Call Center Technologies, LLC",,2238 East Fairview Ave ,Johnson City,TN,37601,DC0516,MA Debt Collector
244947,Advanced Financial Company,,"5900 Pasteur Court, Ste. 115 ",Carlsbad,CA,92008,DC244947,MA Debt Collector
939588,"Afni, Inc.",,1310 Martin Luther King Drive ,Bloomington,IL,61701,DC0711,MA Debt Collector
1651788,AHP Servicing LLC,,"440 S. La Salle St., Suite 1110 ",Chicago,IL,60605,DC1651788,MA Debt Collector
921364,"AIS Recovery Solutions, LLC",,"1212 Corporate Drive, Suite 400 ",Irving,TX,75038,DC921364,MA Debt Collector
921364,"AIS Recovery Solutions, LLC",975036,4515 N. Santa Fe Ave. ,Oklahoma City,OK,73118,DC921364,MA Debt Collector
921364,"AIS Recovery Solutions, LLC",1591397,"Besides Alembic Admin Building Alembic Premises, Alembic Road, Gorwa",Vadodara,,390003,DC921364,MA Debt Collector
1401770,Aldous & Associates PLLC,,4625 South 2300 East Suite 207,Holladay,UT,84117,DC1401770,MA Debt Collector
1491400,"All Debt Solutions, Inc.",,"117 Water Street, suite 204 ",Milford,MA,01757,DC1491400,MA Debt Collector
929077,"Alliance Collection Agencies, Inc.",,3916 S. Business Park Ave. PO Box 1267,Marshfield,WI,54449,DC112062-101,MA Debt Collector
441662,"AllianceOne Receivables Management, Inc",,3043 Walton Road Suite 201,Plymouth Meeting,PA,19462,DC0769,MA Debt Collector
441662,"AllianceOne Receivables Management, Inc",951445,451 Southwest Sedgwick Road Suite 220,Port Orchard,WA,98367,DC111180 - 107,MA Debt Collector
441662,"AllianceOne Receivables Management, Inc",951698,1 Mangrove Way Montego Bay Free Zone,Montego Bay,,West Indies,DC1180 -102,MA Debt Collector
441662,"AllianceOne Receivables Management, Inc",951801,1684 Woodlands Drive Suite 150,Maumee,OH,43537,DC111180 - 106,MA Debt Collector
441662,"AllianceOne Receivables Management, Inc",951835,6160 Mission Gorge Road Suite 300,San Diego,CA,92120,DC111180 - 108,MA Debt Collector
1679170,Alliant Capital Management LLC,,"1965 Sheridan Drive, Suite 100 ",Buffalo,NY,14223,DC1679170,MA Debt Collector
934694,"Allied Account Services, Inc",,1065 Stewart Ave Suite 103,Bethpage,NY,11714,DC0229,MA Debt Collector
934303,"Allied International Credit Corp., (US)",,4410 E. Claiborne Square Ste 235 ,Hampton,VA,23666,DC0731,MA Debt Collector
934303,"Allied International Credit Corp., (US)",943913,55 Mulcaster St ,Barrie,,L4M 0J4,DC934303,MA Debt Collector
934303,"Allied International Credit Corp., (US)",1003942,"15-16 F Three World Square Bldg Upper McKinley Rd McKinley Hill, Fort Bonifacio, Taguig City",Metro Manila,,01634,DC934303,MA Debt Collector
934303,"Allied International Credit Corp., (US)",1930217,3ER Piso Fase 2 Edificio E Centro Corporativo Cafetal,La Ribera de Belen,,,DC934303,MA Debt Collector
934303,"Allied International Credit Corp., (US)",2291630,74 Independence Square N 1st Floor ,Port-of-Spain,,00010,DC934303,MA Debt Collector
928901,Allied Interstate LLC,,7350 Tilghman St Suite 300,Allentown,PA,18106,DC0475,MA Debt Collector
928901,Allied Interstate LLC,1078182,"2F & 3F BPO Building 1 & 2, SM City Clark M.A. Roxas Highway, Brgy. Malabanias, Angeles City",Pampanga,,02009,DC928901,MA Debt Collector
928901,Allied Interstate LLC,1084442,701 Seneca Street Suite 645,Buffalo,NY,14210,DC928901,MA Debt Collector
928901,Allied Interstate LLC,1084444,"A-154A, Sector 63 ","Noida, U.P.",,201 301,DC928901,MA Debt Collector
1512719,"Alternative Collections, LLC",,65 Lawrence Bell Dr ,Williamsville,NY,14221,DC1512719,MA Debt Collector
929734,"AMERICAN ADJUSTMENT BUREAU,INC.",,73 FIELD ST. ,WATERBURY,CT,06702,DC1043,MA Debt Collector
816187,American Coradius International LLC,,"2420 Sweet Home Rd., Suite 150 ",Amherst,NY,14228,DC0959,MA Debt Collector
345863,"American Credit Acceptance, LLC",,961 East Main Street ,Spartanburg,SC,29302,DC345863,MA Debt Collector
954544,"American Credit Bureau, Inc,",,"1200 North Federal Highway, Suite # 200 ",Boca Raton,FL,33432,DC0917,MA Debt Collector
951467,American Credit Management Inc,,25 St Mary's Rd ,Tewksbury,MA,01876,DC0386,MA Debt Collector
338923,American Neighborhood Mortgage Acceptance Company LLC,,700 East Gate Drive Suite 400,Mount Laurel,NJ,08054,DC338923,MA Debt Collector
945971,"American Profit Recovery, Inc.",,34505 W. 12 Mile Road # 333 ,Farmington Hills,MI,48331,DC0857,MA Debt Collector
933103,American Recovery Service Incorporated,,555 St. Charles Drive Suite 100,Thousand Oaks,CA,91360,DC0585,MA Debt Collector
933103,American Recovery Service Incorporated,2402475,205 Bryant Woods South ,Amherst,NY,14228,DC933103,MA Debt Collector
908759,"Americollect, Inc.",,1851 S. Alverno Rd. ,Manitowoc,WI,54220,DC908759,MA Debt Collector
254272,"AmeriNational Community Services, LLC",,217 S. Newton Ave ,Albert Lea,MN,56007,DC254272,MA Debt Collector
254272,"AmeriNational Community Services, LLC",291924,"7000 Security Blvd., Suite 320 ",Baltimore,MD,21244,DC254272,MA Debt Collector
254272,"AmeriNational Community Services, LLC",296200,8121 E Florence Ave. ,Downey,CA,90240,DC296200,MA Debt Collector
254272,"AmeriNational Community Services, LLC",2480417,"3753 Howard Hughes Parkway, Suite 141 ",Las Vegas,NV,89169,DC254272,MA Debt Collector
1111855,Amos Financial LLC,,3330 Skokie Valley Road Suite 301,Highland Park,IL,60035,DC1111855,MA Debt Collector
922863,"Amsher Collection Services, Inc.",,"4524 Southlake Parkway, Suite 15 ",Hoover,AL,35244,DC0847,MA Debt Collector
1289659,Andrew Metcalf,,185 Main St Suite 34,Avon,MA,02322,DC1289659,MA Debt Collector
791182,"Apelles, LLC",,3700 Corporate Drive Suite 240,Columbus,OH,43231,DC791182,MA Debt Collector
1194760,"Arcadia Recovery Bureau, LLC",,645 Penn Street 4th Floor,Reading,PA,19601,DC1194760,MA Debt Collector
1982870,Arcon Credit Solutions LLC,,8425 Seasons Parkway Ste 106,Woodbury,MN,55125,DC1982870,MA Debt Collector
934304,"ARS National Services, Inc.",,270 W. 2nd Ave. ,Escondido,CA,92025,DC0601,MA Debt Collector
934304,"ARS National Services, Inc.",2228887,"1810 First Oaks St, Suite 190 ",Richmond,TX,77406,DC934304,MA Debt Collector
197476,"ARS Portfolio Services, LLC",,6400 Main Street ,Williamsville,NY,14221,DC1265,MA Debt Collector
1456896,"ARstrat, LLC",,14141 Southwest Fwy  Ste 300 ,Sugar Land,TX,77478,DC1456896,MA Debt Collector
1456896,"ARstrat, LLC",1754347,231 W Main St ,Denison,TX,75020,DC1456896,MA Debt Collector
934277,"AscensionPoint Recovery Services, LLC",,200 Coon Rapids Blvd. Ste. 200,Coon Rapids,MN,55433,DC1199,MA Debt Collector
934277,"AscensionPoint Recovery Services, LLC",947917,600 Highway 169 South suite 1520,Saint Louis Park,MN,55426,DC111448-101,MA Debt Collector
934555,"Aspen National Financial, Inc.",,827 Rood Ave. ,Grand Junction,CO,81501,DC0806,MA Debt Collector
934555,"Aspen National Financial, Inc.",939624,18110 Powell Road ,Brooksville,FL,34604,DC111210-101,MA Debt Collector
1006118,Aspire Resources Inc.,,6805 Vista Drive ,West Des Moines,IA,50266,DC1006118,MA Debt Collector
947923,"Asset Recovery Solutions, LLC",,2200 E Devon Ave Suite 200,Des Plaines,IL,60018,DC1260,MA Debt Collector
221718,"Associated Credit Services, Inc.",,"3 Highwood Dr., Suite 102E ",Tewksbury,MA,01876,DC0279,MA Debt Collector
934305,"ATG Credit, LLC",,1700 W. Cortland #205 ,Chicago,IL,60622,DC1178,MA Debt Collector
1172914,"Atlantic Collection Agency, Inc.",,194 Boston Post Road ,East Lyme,CT,06333,DC1172914,MA Debt Collector
940558,"Atlantic Credit & Finance, Inc.",,"111 Franklin Road, SE Suite 400",Roanoke,VA,24011,DC1079,MA Debt Collector
953138,"AUDIT SYSTEMS,INC",,1301 Seminole Boulevard Suite 155-157,Largo,FL,33770,DC0641,MA Debt Collector
933125,"Automated Collection Services, Inc",,304 Northcreek Blvd ,Goodlettsville,TN,37072,DC112040-101,MA Debt Collector
939463,"AXIS FINANCIAL SERVICES, INC.",,2774 GATEWAY RD ,CARLSBAD,CA,92009,DC112081-100,MA Debt Collector
948399,"BALANCED HEALTHCARE RECEIVABLES, LLC",,164 BURKE STREET SUITE 201,NASHUA,NH,03060,DC1109,MA Debt Collector
977918,"Bass & Associates, A Professional Corporation",,3936 E. Ft. Lowell Rd. Suite 200,Tucson,AZ,85712,DC977918,MA Debt Collector
1096500,"BC SERVICES, INC.",,550 Disc Dr ,Longmont,CO,80503,DC1096500,MA Debt Collector
1187737,"BCA Financial Services, Inc.",,"18001 Old Cutler Rd., Suite 462 ",Miami,FL,33157,DC1187737,MA Debt Collector
977708,"Bell & Williams Associates, Inc.",,7 Wall St Suite 101B,Windham,NH,03087,DC977708,MA Debt Collector
931908,"Benuck & Rainey, Inc",,25 Concord Road ,Lee,NH,03861,DC1110,MA Debt Collector
937468,"Berlin-Wheeler, Inc.",,2942 A SW Wanamaker Dr. #200 ,Topeka,KS,66614,DC1262,MA Debt Collector
1901142,Block Capital Services LLC,,89 Providence HWY Suite 205,Westwood,MA,02090,DC1901142,MA Debt Collector
1716869,"Brown & Joseph, LLC",,1 Pierce Place Suite 700W,Itasca,IL,60143,DC1716869,MA Debt Collector
1716869,"Brown & Joseph, LLC",,1 Pierce Place Suite 700W,Itasca,IL,60143,1716869,MA Debt Collector Other Trade Name #1
1716869,"Brown & Joseph, LLC",,1 Pierce Place Suite 700W,Itasca,IL,60143,DC1716869,MA Debt Collector Other Trade Name #2
1716869,"Brown & Joseph, LLC",,1 Pierce Place Suite 700W,Itasca,IL,60143,DC1716869,MA Debt Collector Other Trade Name #3
1716869,"Brown & Joseph, LLC",2158460,420 Rouser Rd  Bldg 3  Ste 300 ,Coraopolis,PA,15108,DC1716869,MA Debt Collector
1313005,"Bull City Financial Solutions, Inc.",,"2609 N. Duke St., Ste. 500 ",Durham,NC,27701,DC1313005,MA Debt Collector
931902,"BYL Services, LLC",,301 Lacey Street ,West Chester,PA,19382,DC1182,MA Debt Collector
953717,"CAINE & WEINER COMPANY, INC.",,5805 Sepulveda Blvd Fl 4 ,Sherman Oaks,CA,91411-2532,DC0833,MA Debt Collector
953717,"CAINE & WEINER COMPANY, INC.",2131802,"12005 Ford Rd, Ste 300 ",Dallas,TX,75234-7262,DC953717,MA Debt Collector
953717,"CAINE & WEINER COMPANY, INC.",2131850,935 National Parkway STE 40 ,Schaumburg,IL,60173,DC953717,MA Debt Collector
15622,"Caliber Home Loans, Inc.",,1525 South Belt Line Road ,Coppell,TX,75019,DC0423,MA Debt Collector
1134374,"Capio Partners, LLC",,3400 Texoma Parkway Suite 100,Sherman,TX,75090,DC1134374,MA Debt Collector
969974,"Capital Accounts, LLC",,4107 Mallory Lane Suite 302,Franklin,TN,37067,DC969974,MA Debt Collector
1631249,Capital Collection Management LLC,,318 S. Clinton Street Suite 400,Syracuse,NY,13202,DC1631249,MA Debt Collector
276717,"Capital For Change, Inc.",,10 Alexander Dr. ,Wallingford,CT,06492,DC276717,MA Debt Collector
954074,"Capital Management Services, LP",,698 1/2 S Ogden St. ,Buffalo,NY,14206,DC1085,MA Debt Collector
2600,"Carrington Mortgage Services, LLC",,"1600 South Douglass Road, Suites 110 & 200-A ",Anaheim,CA,92806,DC2600,MA Debt Collector
2600,"Carrington Mortgage Services, LLC",13319,"2100 E. 196th Street, Suite 100 ",Westfield,IN,46074,DC2600,MA Debt Collector
2600,"Carrington Mortgage Services, LLC",1433720,"6200 Tennyson Parkway, Suite 110-B ",Plano,TX,75024,DC2600,MA Debt Collector
2600,"Carrington Mortgage Services, LLC",1439501,"800 Crescent Centre Drive, Suite 300 ",Franklin,TN,37067,DC2600,MA Debt Collector
937467,"Carson Smithfield, LLC",,101 Crossways Park Drive ,Woodbury,NY,11797,DC937467,MA Debt Collector
937467,"Carson Smithfield, LLC",956632,225 W. Station Square Drive 4th Floor,Pittsburgh,PA,15219,DC956632,MA Debt Collector
933075,"Carter Business Service, Inc.",,150A Andover Street Suite12A,Danvers,MA,01923,DC0006,MA Debt Collector
933075,"Carter Business Service, Inc.",1573356,21 Courthouse Square ,Ossipee,NH,03864,DC933075,MA Debt Collector
942695,"Cavalry Portfolio Services, LLC",,1 American Lane Suite 220,Greenwich,CT,06831,DC0956,MA Debt Collector
942695,"Cavalry Portfolio Services, LLC",954029,4500 South 129th Avenue Ste. 165,Tulsa,OK,74134,DC0954,MA Debt Collector
942695,"Cavalry Portfolio Services, LLC",954043,1611 County Road B West Suite 306,Roseville,MN,55113,DC0955,MA Debt Collector
942695,"Cavalry Portfolio Services, LLC",997882,"4050 E. Cotton Center Blvd Bldg. 2, Ste. 20",Phoenix,AZ,85040,DC942695,MA Debt Collector
942695,"Cavalry Portfolio Services, LLC",2455989,500 East Broward Boulevard Suite 800,Fort Lauderdale,FL,33394,DC942695,MA Debt Collector
1306118,"Cawley & Bergmann, LLC",,550 Broad Street Suite1506,Newark,NJ,07102,DC1306118,MA Debt Collector
1126424,"CBE Customer Solutions, Inc.",,1309 Technology Parkway ,Cedar Falls,IA,50613,DC1126424,MA Debt Collector
1126424,"CBE Customer Solutions, Inc.",1178645,16th Floor W Fifth Avenue 5th Ave. Corner 32nd Street,"Bonifacio Global City, Taguig City Metro Manila",,01634,DC1126424,MA Debt Collector
1126424,"CBE Customer Solutions, Inc.",2400105,326 Dover Rd. ,Clarksville,TN,37042,DC1126424,MA Debt Collector
959560,"Cedars Business Services, LLC",,5230 Las Virgenes Road Suite 210,Calabasas,CA,91302,DC959560,MA Debt Collector
929038,Central Portfolio Control Inc,,10249 Yellow Circle Drive Suite 200,Minnetonka,MN,55343,DC0796,MA Debt Collector
1215163,"Central Research, Inc.",,106 N. Bloomington St Ste S,Lowell,AR,72745,DC1215163,MA Debt Collector
1805652,"Ceteris Portfolio Services, LLC",,28820 Mound Road ,Warren,MI,48092,DC1805652,MA Debt Collector
1805652,"Ceteris Portfolio Services, LLC",,28820 Mound Road ,Warren,MI,48092,DC1805652,MA Debt Collector Other Trade Name #1
1134223,"CHECKredi of Kentucky, LLC",,406 Park Place ,Lexington,KY,40511,DC1134223,MA Debt Collector
934561,"Client Services, Inc.",,3451 Harry S. Truman Blvd. ,St. Charles,MO,63301,DC0467,MA Debt Collector
934561,"Client Services, Inc.",1098474,"Eurocenter Diursa, Building 1, 2nd Floor Barreal de Heredia, Frente a CENADA",Heredia,,,DC934561,MA Debt Collector
967350,COAST PROFESSIONAL INC,,4273 Volunteer Rd ,Geneseo,NY,14454,DC967350,MA Debt Collector
967350,COAST PROFESSIONAL INC,1875541,651 Downing Pines Road ,West Monroe,LA,71292,DC967350,MA Debt Collector
967350,COAST PROFESSIONAL INC,1906763,300 Gleed Ave ,East Aurora,NY,14052,DC967350,MA Debt Collector
952163,"Coastal Medical Billing, Inc.",,"9 Main Street, Suite 2K ",Manchaug,MA,01526,DC0375,MA Debt Collector
1687735,Cognizant Mortgage Services Corporation,,8383 Dominion Parkway Suite 276W,Plano,TX,75024,DC1687735,MA Debt Collector
934255,"Collection Bureau of America, LTD.",,25954 Eden Landing Road ,Hayward,CA,94545-3816,DC111973-101,MA Debt Collector
929063,"Collection Bureau of the Hudson Valley, Inc.",,155 n plank rd ,newburgh,NY,12550,DC0596,MA Debt Collector
1668768,Collection Experts Inc.,,"2112 West Galena Blvd, Unit 8 #325 ",Aurora,IL,60506,DC1668768,MA Debt Collector
1025901,Collection Management Company,,661 Andersen Dr. Suite 110,Pittsburgh,PA,15220,DC1025901,MA Debt Collector
1025901,Collection Management Company,2293991,"501 Shelley Dr, #300 ",Tyler,TX,75701,DC1025901,MA Debt Collector
1025901,Collection Management Company,2294005,"Mahalakshmi Complex, 15/2, Mathura Road Part II Sector – 27/A","Faridabad, Haryana",,121003,DC1025901,MA Debt Collector
907317,"Commonwealth Financial Systems, Inc.",,245 Main Street ,Dickson City,PA,18519,DC907317,MA Debt Collector
940544,Community Cash Management LLC,,163 Rochester Hill Rd ,Rochester,NH,03867,DC0237,MA Debt Collector
2469,"Community Loan Servicing, LLC",,4425 Ponce De Leon Blvd. Suite 300,Coral Gables,FL,33146,DC0852,MA Debt Collector
2469,"Community Loan Servicing, LLC",10099,1415 W. Cypress Creek Road Suite 200,Fort Lauderdale,FL,33309,DC1156,MA Debt Collector
947717,"Complete Payment Recovery Services, Inc.",,"11601 Roosevelt Boulevard, TA-09 ",St. Petersburg,FL,33716,DC0720,MA Debt Collector
947717,"Complete Payment Recovery Services, Inc.",951336,347 Riverside Ave. Bldg. 3-1018,Jacksonville,FL,32202,DC111145-101,MA Debt Collector
3020,Compu-Link Corporation,,3900 Capital City Blvd ,Lansing,MI,48906,DC3020,MA Debt Collector
3020,Compu-Link Corporation,1743666,101 West Louis Henna Blvd Suite 450,Austin,TX,78728,DC3020,MA Debt Collector
934772,"Computer Credit, Inc.",,7996 N Point Blvd Suite 200,Winston Salem,NC,27106,DC0078,MA Debt Collector
1202454,"Comstar, LLC",,8 Turcotte Memorial Drive ,Rowley,MA,01969,DC1202454,MA Debt Collector
1000538,Concentrix Daksh Services India Private Limited,,"Building 14, 17th Floor,Tower C DLF Cyber City, DLF Phase 2,","Gurgaon,Haryana",,122002,DC1000538,MA Debt Collector
1000538,Concentrix Daksh Services India Private Limited,2273428,"Manyata Embassy Business Park, FL 1, 2, 3, 4 & 6 D1, D4, C4, G4 Block, Outer Right Road, Nagawara",Bangalore,,560045,DC1000538,MA Debt Collector
365917,Concord Servicing LLC,,4150 N. Drinkwater Blvd. Suite 200,Scottsdale,AZ,85251,DC0502,MA Debt Collector
1608597,"Connect International, LLC",,667 CENTRAL 1ST FLOOR,HIGHLAND PARK,IL,60035,DC1608597,MA Debt Collector
1608597,"Connect International, LLC",1678058,De donde Fue la Vicky 300 mts al Sur,Managua,,33166,DC1608597,MA Debt Collector
931244,CONRAD CREDIT CORPORATION,,476 W. VERMONT AVE. ,ESCONDIDO,CA,92025,DC0922,MA Debt Collector
943494,"Constar Financial Services, LLC",,10400 N 25th Ave Suite #100,Phoenix,AZ,85021,DC1192,MA Debt Collector
943494,"Constar Financial Services, LLC",2079149,Ave Universidad 13201 Otay Centenario Room 101,Tijuana B.C.,,22424,DC943494,MA Debt Collector
1775977,"Constar International, LLC",,Ave Universidad 13201 Otay Centenario ,Tijuana,,22424,DC1775977,MA Debt Collector
931208,"Continental Service Group, LLC",,200 CrossKeys Office Park ,Fairport,NY,14450,DC0764,MA Debt Collector
931208,"Continental Service Group, LLC",951142,201 Como Park Blvd ,Cheektowaga,NY,14227,DC1297,MA Debt Collector
954069,CONTRACT CALLERS INC,,501 Greene St Suite 302,Augusta,GA,30901,DC112584-101,MA Debt Collector
1134094,"CREDENCE RESOURCE MANAGEMENT, LLC",,4222 Trinity Mills Suite 260,Dallas,TX,75287,DC1134094,MA Debt Collector
1134094,"CREDENCE RESOURCE MANAGEMENT, LLC",1410896,"E-Park, South Tower, Plot No 3/1, MIDC Kharadi ","Kharadi, Pune",,411 014,DC1134094,MA Debt Collector
932663,"Credit Control Services, Inc.",,725 Canton Street ,Norwood,MA,02062,DC0376,MA Debt Collector
932663,"Credit Control Services, Inc.",950654,9 Northeastern Blvd. ,Salem,NH,03079,DC110982-102,MA Debt Collector
932663,"Credit Control Services, Inc.",950671,175 Commerce Way ,Portsmouth,NH,03801,DC110982-103,MA Debt Collector
932663,"Credit Control Services, Inc.",2333541,Avenida Tiradentes #22 Naco,Santo Domingo,,10119,DC932663,MA Debt Collector
870875,"Credit Control, LLC",,"3300 Rider Trail S, Suite 500 ",Earth City,MO,63045,DC111363-105,MA Debt Collector
870875,"Credit Control, LLC",991798,9929 Race Track Road ,Tampa,FL,33626,DC111363-106,MA Debt Collector
870875,"Credit Control, LLC",1120166,"8001 Woodland Center Boulevard, Suite 200 ",Tampa,FL,33614,DC870875,MA Debt Collector
870875,"Credit Control, LLC",1367546,"9275 W Russell Road, Suite 300 ",Las Vegas,NV,89148,DC870875,MA Debt Collector
1113194,Credit Corp Solutions Inc.,,"121 West Election Road, Suite 200 ",Draper,UT,84020,DC1113194,MA Debt Collector
1113194,Credit Corp Solutions Inc.,1929966,33405 8th Avenue South Suite 275,Federal Way,WA,98003,DC1113194,MA Debt Collector
938941,"Credit Management, LP",,631 S. Royal Lane Suite 100,Coppell,TX,75019,DC0162,MA Debt Collector
938941,"Credit Management, LP",1767678,631 S. Royal Lane Suite 100,Coppell,TX,75019,DC938941,MA Debt Collector
938941,"Credit Management, LP",2295066,"Blvd Agua Caliente 10470-23 Col. Revolución, Parque Industrial Barranquita",Tijuana,,22015,DC938941,MA Debt Collector
1134368,"Credit Resolutions, LLC",,500 Main Street 2nd Floor ,Middlefield,CT,06455-0222,DC1134368,MA Debt Collector
1001962,"Credit Solutions, LLC",,2277 Thunderstick Dr Ste 400,Lexington,KY,40505,DC1001962,MA Debt Collector
1671989,"Credit Systems International, Inc.",,"1277, Country Club Lane ",Fort Worth,TX,76112,DC1671989,MA Debt Collector
935745,"CREDIT WORLD SERVICES, INC.",,6000 MARTWAY ,SHAWNEE MISSION,KS,66202,DC0927,MA Debt Collector
937505,"CTI, Inc",,237 Lexington St Suite 10,Woburn,MA,01890,DC0092,MA Debt Collector
1002061,"D & A Services, LLC",,1400 E. Touhy Avenue Suite G2,Des Plaines,IL,60018,DC1002061,MA Debt Collector
1002061,"D & A Services, LLC",1277923,11111 Wilcrest Green Suite 225,Houston,TX,77042,DC1002061,MA Debt Collector
1002061,"D & A Services, LLC",1901948,570 Carillon Parkway Suite 103,St. Petersburg,FL,33716,DC1002061,MA Debt Collector
70377,"DATA MORTGAGE, INC.",,1417 North Magnolia Avenue ,Ocala,FL,34475,DC70377,MA Debt Collector
207709,"DCM Services, LLC",,1550 American Blvd E Ste 200 ,Bloomington,MN,55425-1116,DC1091,MA Debt Collector
934307,"Debt Recovery Solutions, LLC",,6800 Jericho Turnpike ste. 113E ,Syosset,NY,11791,DC1075,MA Debt Collector
967590,Delta Management Associates Inc,,100 Everett Ave Suite 6,Chelsea,MA,02150,DC0269,MA Debt Collector
967590,Delta Management Associates Inc,1020530,21 Manchester Street ,Merrimack,NH,03054,DC110955-101,MA Debt Collector
920378,"Diversified Adjustment Service, Inc.",,600 Coon Rapids Blvd. ,Coon Rapids,MN,55433,DC0414,MA Debt Collector
1587682,Diversified Recovery Bureau LLC,,40 Gardenville Pkwy Suite 201,West Seneca,NY,14224,DC1587682,MA Debt Collector
954553,Divine and Service LP,,740 Walt Whitman Road ,Melville,NY,11747,DC0713,MA Debt Collector
938351,"DTG Holdings, Inc.",,"11350 McCormick Road EPIII, Suite 800",Hunt Valley,MD,21031,DC0735,MA Debt Collector
116356,"Dyck-O'Neal, Inc.",,"3100 Monticello Ave., Suite 650 ",Dallas,TX,75205,DC1208,MA Debt Collector
952183,Dynamic Recovery Solutions LLC,,"135 Interstate Blvd, Suite 6 ",Greenville,SC,29615,DC1287,MA Debt Collector
934918,"Eastern Account System of Connecticut, Inc.",,111 Park Ridge Rd. ,Brookfield,CT,06804,DC1313,MA Debt Collector
1049519,"Eastpoint Recovery Group, Inc.",,1738 Elmwood Ave Suite 104,Buffalo,NY,14207,DC1049519,MA Debt Collector
1489841,"Educational Computer Systems, Inc.",,1200 Cherrington Parkway Suite 200,Moon Township,PA,15108,DC1489841,MA Debt Collector
1489841,"Educational Computer Systems, Inc.",2163761,2150 Country Club Road Suite 320,Winston Salem,NC,27104,DC1489841,MA Debt Collector
950415,"EGS Financial Care, Inc.",,5161 California Ave. Suite 100,Irvine,CA,92617,DC950415,MA Debt Collector
950415,"EGS Financial Care, Inc.",2439630,"Plaza America, Juan Pablo II y Calle 53 Pte. ",Puebla,,72440,DC950415,MA Debt Collector
950971,ElectroMedical Associates Inc.,,5 Northern Blvd Unit 11 ,Amherst,NH,03031,DC0903,MA Debt Collector
181265,"Encore Receivable Management, Inc.",,225 International Parkway ,Lake Mary,FL,32746,DC0661,MA Debt Collector
181265,"Encore Receivable Management, Inc.",953699,"Glorietta 5, Ayala Center Ayala Avenue",Makati City,,01224,DC181265,MA Debt Collector
181265,"Encore Receivable Management, Inc.",2041101,Ave Carrera 45 # 114 – 90 ,Bogota,,110111,DC181265,MA Debt Collector
181265,"Encore Receivable Management, Inc.",2061409,"Edificio Galeon, Calle 127 and Carrera 7A 28 ",Bogota,,10111,DC181265,MA Debt Collector
181265,"Encore Receivable Management, Inc.",2061414,"One Montage, Archbishop Reyes Ave Floor 23, 24, 25, 26, 27, 28 and 29 F",Cebu City,,06000,DC181265,MA Debt Collector
181265,"Encore Receivable Management, Inc.",2257799,8000 Baymeadows Way ,Jacksonville,FL,32256,DC181265,MA Debt Collector
181265,"Encore Receivable Management, Inc.",2293638,"Edificio Concentrix, 100m sur 200m oeste de la Embajada Americanacostado Oeste de Sylvannia","San Jose, Pavas",,10109,DC181265,MA Debt Collector
181265,"Encore Receivable Management, Inc.",2334394,Calle 90 ,Bogota,,110221,DC181265,MA Debt Collector
181265,"Encore Receivable Management, Inc.",2410960,3947 N Oak Street Extension ,Valdosta,GA,31605,DC181265,MA Debt Collector
953724,"Enhanced Recovery Company, LLC",,8014 Bayberry Rd. ,Jacksonville,FL,32256,DC0737,MA Debt Collector
953724,"Enhanced Recovery Company, LLC",,8014 Bayberry Rd. ,Jacksonville,FL,32256,DC953724,MA Debt Collector Other Trade Name #1
934565,"Estate Information Services, LLC",,"670 Morrison Rd., Suite 300 ",Gahanna,OH,43230,DC0953,MA Debt Collector
926201,Everest Receivable Services Inc.,,2351 North Forest Road Suite 100,Getzville,NY,14068,DC926201,MA Debt Collector
967404,Exeter Finance LLC,,2101 W. John Carpenter Freeway ,Irving,TX,75063,DC967404,MA Debt Collector
1083681,"ExlService Philippines, Inc.",,"6th Floor, One E-com Center Harbor Drive, MOA Complex",Pasay City,,01308,DC1083681,MA Debt Collector
1083681,"ExlService Philippines, Inc.",2500238,"9th Floor, Plaza E Building Northgate Cyberzone, Alabang",Muntinlupa City,,01781,DC1083681,MA Debt Collector
959428,"F.H. Cann & Associates, Inc.",,1600 Osgood Street Suite 3058,North Andover,MA,01845,DC0615,MA Debt Collector
959428,"F.H. Cann & Associates, Inc.",2219172,100 Domain Drive ,Exeter,NH,03833,DC959428,MA Debt Collector
934298,"Fair Collections & Outsourcing of New England, Inc.",,12304 Baltimore Ave. Ste E,Beltsville,MD,20705,DC0973,MA Debt Collector
934298,"Fair Collections & Outsourcing of New England, Inc.",939132,"Rcbc Plaza - Yuchengco Tower 6819 Ayala Ave, 27th Floor",Makati City,,01200,DC1222,MA Debt Collector
88244,"Fay Servicing, LLC",,5426 Bay Center Drive Suite 300,Tampa,FL,33609,DC112380-100,MA Debt Collector
88244,"Fay Servicing, LLC",349963,"1601 Lyndon B. Johnson Freeway Suite 150, 400 & 500",Farmers Branch,TX,75234,DC88244,MA Debt Collector
88244,"Fay Servicing, LLC",1026442,1801 S Meyers Rd Suite 400,Oakbrook Terrace,IL,60181,DC88244,MA Debt Collector
88244,"Fay Servicing, LLC",1578923,425 S Financial Place Suite 2000,Chicago,IL,60605,DC88244,MA Debt Collector
4920,"FCI Lender Services, Inc.",,8180 East Kaiser Blvd. ,Anaheim Hills,CA,92808,DC4920,MA Debt Collector
1071,Finance of America Mortgage LLC,,1 West Elm Street Suite 100,Conshohocken,PA,19428,DC1071,MA Debt Collector
922812,"Financial Asset Management Systems, Inc.",,665 Molly Lane Suite 110 ,Woodstock,GA,30189,DC0594,MA Debt Collector
950721,"Financial Assistance, Inc",,1130 140th Ave NE Suite 100A,Bellevue,WA,98005,DC0870,MA Debt Collector
210008,"Financial Business and Consumer Solutions, Inc",,330 S. Warminster Rd Suite 353,Hatboro,PA,19040,DC0800,MA Debt Collector
210008,"Financial Business and Consumer Solutions, Inc",1003119,3860 Bayshore Road Unit 8,North Cape May,NJ,08204,DC210008,MA Debt Collector
951408,Financial Corporation of America,,12515 Research Blvd. Bldg.2 Ste. 200,Austin,TX,78759,DC112698-100,MA Debt Collector
935742,"Financial Recovery Services, Inc.",,1345 Mendota Heights Road Suite 100,Mendota Heights,MN,55120,DC0679,MA Debt Collector
935742,"Financial Recovery Services, Inc.",942075,823 Belknap Street Suite 205,Superior,WI,55480,DC935742,MA Debt Collector
935742,"Financial Recovery Services, Inc.",1786339,30-30 4 Market Street Third Floor,Montego Bay,,JMCJS12,DC1786339,MA Debt Collector
935742,"Financial Recovery Services, Inc.",2037057,870 Cottonwood Lane Suite 600,Dakota Dunes,SD,57049,DC935742,MA Debt Collector
921357,First Credit Services Inc.,,9 Wills Way Building 3,Piscataway,NJ,08854,DC921357,MA Debt Collector
921357,First Credit Services Inc.,1126057,"Unit #401, 4th Floor Nitco Biz Park Plot No C-19, Road No. 16",Thane (West) Maharashtra,,400604,DC921357,MA Debt Collector
921357,First Credit Services Inc.,1992971,2601 Cross Country Drive Building E,Columbus,GA,31906,DC921357,MA Debt Collector
934308,"First Financial Asset Management, Inc.",,"3091 Governors Lake Drive, Suite 500 ",Norcross,GA,30071,DC0862,MA Debt Collector
934308,"First Financial Asset Management, Inc.",945274,3707 North 7th Street Suite 100,Phoenix,AZ,85014,DC111260-101,MA Debt Collector
951453,"First Financial Resources, Inc.",,495 Old Connecticut Path Suite 220,Framingham,MA,01701-4567,DC0245,MA Debt Collector
934310,"First National Collection Bureau, Inc.",,50 W. Liberty St. Ste 250 ,Reno,NV,89501,DC0867,MA Debt Collector
1516963,"FirstCredit, Inc.",,3250 W. Market Street Suite 304,Akron,OH,44333,DC1516963,MA Debt Collector
939550,"FirstPoint Collection Resources, Inc.",,225 Commerce Place ,Greensboro,NC,27401,DC0869,MA Debt Collector
954078,"Firstsource Advantage, LLC",,205 Bryant Woods South ,Amherst,NY,14228,DC0463,MA Debt Collector
954078,"Firstsource Advantage, LLC",973091,"4th Dimension, Mindspace, Link Road ",Mumbai,,400 064,DC954078,MA Debt Collector
931140,"FMA Alliance, Ltd.",,12339 Cutten Road ,Houston,TX,77066,DC0649,MA Debt Collector
953582,FMS Inc.,,4915 S. Union Ave. ,Tulsa,OK,74107,DC0810,MA Debt Collector
953582,FMS Inc.,1712900,2775 W. Navigator Drive Suite 103,Meridian,ID,83642,DC953582,MA Debt Collector
2102,Franklin Credit Management Corporation,,"101 Hudson Street, 24th Floor ",Jersey City,NJ,07302,DC1194,MA Debt Collector
948786,"Franklin Service, Inc",,2978 West Jackson St ,Tupelo,MS,38801,DC0860,MA Debt Collector
2767,Freedom Mortgage Corporation,,951 Yamato Road Suite 175,Boca Raton,FL,33431,DC2767,MA Debt Collector
2767,Freedom Mortgage Corporation,7069,10500 Kincaid Drive Suite 300,Fishers,IN,46037,DC2767,MA Debt Collector
2767,Freedom Mortgage Corporation,1392951,625 W. Ridge Pike Building C,Conshohocken,PA,19428,DC2767,MA Debt Collector
2767,Freedom Mortgage Corporation,1578806,20 Lake Center 401 Route 73,Marlton,NJ,08053,DC2767,MA Debt Collector
2767,Freedom Mortgage Corporation,1767931,8787 Baypine Road 5th Floor,Jacksonville,FL,32256,DC2767,MA Debt Collector
2767,Freedom Mortgage Corporation,1862906,9275 Sky Park Court Suite 400,San Diego,CA,92123,DC2767,MA Debt Collector
2767,Freedom Mortgage Corporation,1902345,"9330 LBJ Freeway Suite 900, Office 974",Dallas,TX,75243,DC2767,MA Debt Collector
2767,Freedom Mortgage Corporation,1902379,"30 Lake Center 401 Route 73, Suite 110",Marlton,NJ,08053,DC2767,MA Debt Collector
2767,Freedom Mortgage Corporation,1962889,8196 SW Hall Boulevard Suite 212,Beaverton,OR,97008,DC2767,MA Debt Collector
934311,"FrontLine Asset Strategies, LLC",,10550 Deerwood Park Blvd Ste 309 ,Jacksonville,FL,32256,DC112028-101,MA Debt Collector
1124656,Frost-Arnett Company,,2105 Elm Hill Pike Suite #200,Nashville,TN,37210,DC1124656,MA Debt Collector
934278,"Full Circle Financial Services, LLC",,"12425 Race Track Road, Suite 100 ",Tampa,FL,33626,DC934278,MA Debt Collector
937172,Gatestone & Co. International Inc.,,455 North 3rd St Suite 260 ,Phoenix,AZ,85004,DC0639,MA Debt Collector
937172,Gatestone & Co. International Inc.,1010505,180 Duncan Mill Rd Suite 300,Toronto,,M3B1Z6,DC937172,MA Debt Collector
937172,Gatestone & Co. International Inc.,1675435,7015 L Street ,Omaha,NE,68117,DC937172,MA Debt Collector
937172,Gatestone & Co. International Inc.,1675503,4936 South Point Parkway ,Fredericksburg,VA,22407,DC937172,MA Debt Collector
191713,GC Services Limited Partnership,,6330 GULFTON ST ,Houston,TX,77081,DC191713,MA Debt Collector
191713,GC Services Limited Partnership,1003929,332 Town Square West Highway 190 ,Copperas Cove,TX,76522,DC191713,MA Debt Collector
191713,GC Services Limited Partnership,1141462,"8400 Miramar Road, Suite 250 ",San Diego,CA,92126,DC191713,MA Debt Collector
191713,GC Services Limited Partnership,2373334,5723 University Heights Blvd. Suite 101 & 106,San Antonio,TX,78249,DC191713,MA Debt Collector
951918,General Revenue Corporation,,4660 Duke Drive Suite 200,Mason,OH,45040,DC0007,MA Debt Collector
1739063,Genpact Collections LLC,,335 New Commerce Blvd ,Wilkes-Barre,PA,18706,DC1739063,MA Debt Collector
1739063,Genpact Collections LLC,1879872,6737 Southpoint Drive South ,Jacksonville,FL,32216,DC1739063,MA Debt Collector
1739063,Genpact Collections LLC,1879881,3300 E. Renner Rd Suite 300,Richardson,TX,75082,DC1739063,MA Debt Collector
1739063,Genpact Collections LLC,1879889,9900 Innovation Drive Milwaukee County Research Park,Wauwatosa,WI,53226,DC1739063,MA Debt Collector
1739063,Genpact Collections LLC,1879896,1410 SW Morrison Street 7th Floor,Portland,OR,97205,DC1739063,MA Debt Collector
934264,Genpact Services LLC,,3300 E. Renner Rd. Ste. 300 ,Richardon,TX,75082,DC0969,MA Debt Collector
934264,Genpact Services LLC,989611,"Building 5132, dotcom drive, Northgate Cyberzone, Filinvest Corporate City","Alabang,  Muntinlupa City",,01780,DC934264,MA Debt Collector
934264,Genpact Services LLC,989614,"Plot 22, Sector 18, Udyog Vihar ","Gurgaon, Haryana",,122015,DC934264,MA Debt Collector
934264,Genpact Services LLC,989619,"14-45,IDA Uppal Opp. NGRI Habsiguda ","Hyderabad, Andhra Pradesh",,500039,DC934264,MA Debt Collector
934264,Genpact Services LLC,989621,"EDM S de R.L. de C. V, Ave. Hermanos Escobar #7651","Juarez, Chihuahua",,32330,DC934264,MA Debt Collector
934264,Genpact Services LLC,989623,"Genpact Headstrong Capital Market D4, Sector - 59","NOIDA, Uttar Pradesh",,201307,DC934264,MA Debt Collector
934264,Genpact Services LLC,993279,"iHub 1 Building, North Bridgeway Drive, Northgate ","Alabang, Muntinlupa City",,01780,DC934264,MA Debt Collector
934264,Genpact Services LLC,993281,"Avenida Petapa 40-35, Zona 12 ",Guatemala City,,01012,DC934264,MA Debt Collector
934264,Genpact Services LLC,1112545,"5th Floor, Building A, Plaza at Northgate ","Cyberpark, Alabang, Muntinlupa City",,,DC934264,MA Debt Collector
934264,Genpact Services LLC,1185952,"Vector 2 Building, Northgate Avenue Northgate Cyberzone, Filinvest Corporate City",Muntinlupa City,,01780,DC934264,MA Debt Collector
934264,Genpact Services LLC,1185992,"One Cyberpod Centris (OCC) Building Eton-Centris, EDSA corner Quezon Avenue",Quezon City,,01100,DC934264,MA Debt Collector
934264,Genpact Services LLC,1525801,"3rd Level, Starmall Prima Bataan Barangay Cupang, Balanga City",Bataan,,02100,DC934264,MA Debt Collector
934264,Genpact Services LLC,2498322,Avenida Acueducto 6075A Colonia Puerta de Hierro,"Zapopan, Jalisco",,45116,DC934264,MA Debt Collector
4328,"GITSIT SOLUTIONS, LLC",,"333 So. Anita Drive, Ste. 400 ",Orange,CA,92868,DC112039-100,MA Debt Collector
4328,"GITSIT SOLUTIONS, LLC",957732,"39303 Country Club Drive, Ste. A-1 ",Farmington Hills,MI,48331,DC4328,MA Debt Collector
1029427,Glass Mountain Capital LLC,,"1375 E. Woodfield Road, Ste. 400 ",Schaumburg,IL,60173,DC1029427,MA Debt Collector
952150,"Goldberg & Donovan, Inc.",,"197 Main Street, Suite 203 ",Milford,MA,01757,DC1333,MA Debt Collector
442028,Grand Vacations Services LLC,,"6355 MetroWest Blvd., Suite 180 ",Orlando,FL,32835,DC442028,MA Debt Collector
266062,Gregory Funding LLC,,13190 SW 68th Parkway Suite 200,Tigard,OR,97223,DC266062,MA Debt Collector
1679220,Grimley Financial Corporation,,1415 Route 70 East Suite LL-5,Cherry Hill,NJ,08034,DC1679220,MA Debt Collector
931242,"Gulf Coast Collection Bureau, Inc.",,7560 Commerce Court ,Sarasota,FL,34243,DC0788,MA Debt Collector
931242,"Gulf Coast Collection Bureau, Inc.",2480520,2401 W. Bay Dr 122,Largo,FL,33770,DC931242,MA Debt Collector
1197823,"Halsted Financial Services, LLC",,8001 N. Lincoln Ave Suite 500,Skokie,IL,60077,DC1197823,MA Debt Collector
2038270,"Harris & Harris of Illinois, Ltd.",,111 W. Jackson Blvd. SUITE 400,Chicago,IL,48348-2893,DC2038270,MA Debt Collector
952174,"HARVARD FUNDING, LLC",,16 HARVARD STREET ,WORCESTER,MA,01609,DC1215,MA Debt Collector
3707,"HCL Lending Solutions, LLC.",,8744 Lucent Blvd. Second Floor,Highlands Ranch,CO,80129,DC3707,MA Debt Collector
3707,"HCL Lending Solutions, LLC.",1176952,"30870 Russell Ranch Road, Suite 100 ",Westlake Village,CA,91361,DC3707,MA Debt Collector
960124,"Healthcare Revenue Recovery Group, LLC",,"1643 N. Harrison Parkway Building H, Suite 100",Sunrise,FL,33323,DC960124,MA Debt Collector
1148013,"Helvey & Associates, Inc.",,1015-1029 E. Center St. ,Warsaw,IN,46580,DC1148013,MA Debt Collector
1442770,Higher Education Loan Authority of the state of Missouri,,633 Spirit Drive ,Chesterfield,MO,63005,DC1442770,MA Debt Collector
1224682,"Hollis Cobb Associates, Inc.",,3175 Satellite Blvd Suite 400,Duluth,GA,30096,DC1224682,MA Debt Collector
6521,"HomeBridge Financial Services, Inc.",,194 Wood Avenue South 9th Floor,Iselin,NJ,08830,DC6521,MA Debt Collector
945496,"HOVG, LLC",,"4145 Shackleford Road, Suite 330B ",Norcross,GA,30093,DC1138,MA Debt Collector
945496,"HOVG, LLC",948818,Third Floor Sharada Arcade Pune Satara Road,Pune,,411037,DC1089,MA Debt Collector
1982626,"HTX REALTY, INC.",,1 Mauchly ,Irvine,CA,92618,DC1982626,MA Debt Collector
988277,"Hunter Warfield, Inc.",,4620 Woodland Corporate Blvd. ,Tampa,FL,33614,DC988277,MA Debt Collector
988277,"Hunter Warfield, Inc.",1126452,19 Calle 5-47 zona 10 ,Guatemala City,,01010,DC988277,MA Debt Collector
937158,"I.C. System, Inc.",,444 Highway 96 East ,St. Paul,MN,55127-2557,DC0097,MA Debt Collector
937158,"I.C. System, Inc.",960279,301 Sand Lake Rd ,Onalaska,WI,54650,DC1123,MA Debt Collector
971181,"I.Q. DATA INTERNATIONAL, INC.",,"21222 30th DRIVE SE, SUITE 120 ",BOTHELL,WA,98021-7012,DC971181,MA Debt Collector
908487,"InDebted USA, Inc.",,"5301 Veterans Memorial Pkwy, Ste 204 ",St. Peters,MO,63376,DC908487,MA Debt Collector
908487,"InDebted USA, Inc.",2154362,"5th Floor PNB Building 6754 Ayala Avenue corner, Legazpi Village","Makati City,Metro Manila",,01229,DC908487,MA Debt Collector
908487,"InDebted USA, Inc.",2479593,"3800 Howard Hughes Pkwy, Ste 930 ",Las Vegas,NV,89169,DC908487,MA Debt Collector
1042702,Innovate Loan Servicing Corporation,,3001 Meacham Blvd Suite 215,Fort Worth,TX,76137,DC1042702,MA Debt Collector
3761,"Insight One Recovery Solutions, Inc.",,"6032 Innovation Way, Suite 201 ",Fort Worth,TX,76244,DC1316,MA Debt Collector
1020904,"INTEGRA SERVICING, LLC",,325 E WARM SPRINGS ROAD STE 200,LAS VEGAS,NV,89119,DC1020904,MA Debt Collector
936677,"International Computer Systems, Inc.",,10925 Otter Creek E. Blvd ,Mabelvale,AR,72103,DC0872,MA Debt Collector
937604,"Investinet, LLC",,910 Pinckney Street ,Greenville,SC,29609,DC937604,MA Debt Collector
934189,"J.M. Adjustment Services, L.L.C.",,44600 Delco Blvd. ,Sterling Heights,MI,48313,DC112708-100,MA Debt Collector
1644298,"January Technologies, Inc.",,"176 Grand Street, 4th Floor ",New York,NY,10013,DC1644298,MA Debt Collector
969968,"Jefferson Capital Systems, LLC",,200 14th Ave E ,Sartell,MN,56377,DC969968,MA Debt Collector
969968,"Jefferson Capital Systems, LLC",1416654,"1355 S Colorado Blvd. Building C, Ste 400",Denver,CO,80222,DC969968,MA Debt Collector
935646,JNR Adjustment Company Inc,,"3300 Fernbrook Lane North, Ste. 225 ",Plymouth,MN,55447,DC0906,MA Debt Collector
935646,JNR Adjustment Company Inc,957916,555 Winderley Place Suite 320,Maitland,FL,32751,DC0938,MA Debt Collector
1011841,"Kinum, Inc.",,"770 Lynnhaven Pkwy, Suite 160 ",Virginia Beach,VA,23452,DC1011841,MA Debt Collector
1011841,"Kinum, Inc.",1018349,8200 Haverstick Road Suite 220,Indianapolis,IN,46240,DC1011841,MA Debt Collector
931903,"L J Ross Associates, Inc.",,4 Universal Way ,Jackson,MI,49202,DC113809-100,MA Debt Collector
938920,"Lamont, Hanley & Associates, Inc.",,186 Granite Street ,Manchester,NH,03101,DC0254,MA Debt Collector
1796,"Land Home Financial Services, Inc.",,"1355 Willow Way, Suite 250 ",Concord,CA,94520,DC1796,MA Debt Collector
1796,"Land Home Financial Services, Inc.",1584746,3611 S. Harbor Blvd Suite 100,Santa Ana,CA,92704,DC1796,MA Debt Collector
1796,"Land Home Financial Services, Inc.",2010488,139 Fulton Street Room 809,New York,NY,10038,DC1796,MA Debt Collector
1766839,"Launch Servicing, LLC",,"402 West Broadway, 20th Floor ",San Diego,CA,92101,DC1766839,MA Debt Collector
1766839,"Launch Servicing, LLC",1776356,5109 S. Broadband Lane Suite 400,Sioux Falls,SD,57108,DC1766839,MA Debt Collector
878400,LCS FINANCIAL SERVICES CORPORATION,,6782 S. POTOMAC STREET SUITE 100,CENTENNIAL,CO,80112,DC1303,MA Debt Collector
1607,"LenderLive Network, LLC",,6200 S. Quebec Street Suite 150,Greenwood Village,CO,80111,DC1607,MA Debt Collector
1424139,LendingPoint LLC,,1201 Roberts Blvd. Suite 200,Kennesaw,GA,30144,DC1424139,MA Debt Collector
1563468,"Life Line Billing Systems, LLC",,N2930 State Hwy 22 ,Wautoma,WI,54982-5267,DC1563468,MA Debt Collector
2916,"LoanCare, LLC",,3637 Sentara Way ,Virginia Beach,VA,23452,DC2916,MA Debt Collector
2916,"LoanCare, LLC",1104653,"601 Riverside Ave. Building 5, 3rd Floor",Jacksonville,FL,32204,DC2916,MA Debt Collector
1191130,"LOCKHART, MORRIS & MONTGOMERY, INC.",,1401 N Central Expy Suite 225 ,Richardson,TX,75080,DC1191130,MA Debt Collector
957935,"Longbridge Financial, LLC",,"One International Blvd., Suite 900 ",Mahwah,NJ,07495,DC957935,MA Debt Collector
957935,"Longbridge Financial, LLC",1594241,945 Bunker Hill Road Suite 500,Houston,TX,77024,DC957935,MA Debt Collector
940272,"LTD Financial Services, L.P.",,"3200 Wilcrest, Suite 600 ",Houston,TX,77042,DC0363,MA Debt Collector
947794,"Lyon Collection Services, Inc",,7924 West Sahara Avenue ,Las Vegas,NV,89117,DC0751,MA Debt Collector
185724,"Madison Management Services, LLC",,4600 Kietzke Lane Ste K-225,Reno,NV,89502,DC185724,MA Debt Collector
1733064,"Main Line Recovery Solutions, Inc.",,29 Regency Plaza ,Glen Mills,PA,19342,DC1733064,MA Debt Collector
931010,"McCarthy, Burgess & Wolff, Inc.",,26000 Cannon Road ,Cleveland,OH,44146,DC1221,MA Debt Collector
931010,"McCarthy, Burgess & Wolff, Inc.",1599885,7088 W. 130th Street ,Middleburg Heights,OH,44130,DC931010,MA Debt Collector
931010,"McCarthy, Burgess & Wolff, Inc.",1599893,Pawnee Building 9910 E 42nd St. Suite 201,Tulsa,OK,74146,DC931010,MA Debt Collector
950663,"Media Collections, Inc",,8948 Canyon Falls Blvd. #200 ,Twinsburg,OH,44087,DC0943,MA Debt Collector
950663,"Media Collections, Inc",1269014,2001 Aerospace Pkwy #201 ,Brookpark,OH,44142,DC950663,MA Debt Collector
934576,"Medical Data Systems, Inc.",,2001 9th Avenue Suite 312,Vero Beach,FL,32960,DC1321,MA Debt Collector
934576,"Medical Data Systems, Inc.",950421,"645 Walnut Street, Suite 5 ",Gadsden,AL,35901,DC1324,MA Debt Collector
934576,"Medical Data Systems, Inc.",950425,755 W. Nasa Blvd. ,Melbourne,FL,32901,DC1323,MA Debt Collector
934576,"Medical Data Systems, Inc.",950428,1532 Lakeview Drive ,Sebring,FL,33870,DC1322,MA Debt Collector
934154,"MEDICREDIT, INC.",,906 Rain Forest Parkway ,Columbia,MO,65202,DC1136,MA Debt Collector
934154,"MEDICREDIT, INC.",1108079,13730 South Point Blvd. ,Charlotte,NC,28273,DC934154,MA Debt Collector
934154,"MEDICREDIT, INC.",2024283,13906 Promenade Green Way ,Louisville,KY,40245,DC934154,MA Debt Collector
1292,"Members Mortgage Company, Inc.",,90 Maple Street ,Stoneham,MA,02180,DC0448,MA Debt Collector
929060,"Meragon Financial Services, Inc.",,1636 Hendersonville Road Suite #135,Asheville,NC,28803,DC0698,MA Debt Collector
962209,"Mercantile Adjustment Bureau, LLC",,165 Lawrence Bell Drive Suite 100,Williamsville,NY,14221,DC0787,MA Debt Collector
932674,"Merchants & Medical Credit Corporation, Inc.",,6324 Taylor Drive ,Flint,MI,48507,DC0529,MA Debt Collector
1115207,Merchants Association Collection Division Inc.,,134 South Tampa Street ,Tampa,FL,33602,DC1115207,MA Debt Collector
1115207,Merchants Association Collection Division Inc.,1487134,"13561 S. West Bay Shore Dr, Suite 250 ",Traverse City,MI,49684,DC1115207,MA Debt Collector
931239,Merchants' Credit Guide Company,,209 S LaSalle St Suite 900,Chicago,IL,60604,DC0501,MA Debt Collector
943168,Michael Andrews & Associates LLC,,"26261 Evergreen Rd., Ste. 350 ",Southfield,MI,48076,DC112813-100,MA Debt Collector
934164,"Midland Credit Management, Inc.",,350 Camino De La Reina Ste. 300,San Diego,CA,92108,DC0608,MA Debt Collector
934164,"Midland Credit Management, Inc.",944390,"600 W. St. Germain St., 2nd Fl. ",St. Cloud,MN,56301,DC111080-102,MA Debt Collector
934164,"Midland Credit Management, Inc.",944394,4405 East Cotton Center Blvd. Suite 130,Phoenix,AZ,85040,DC111080-103,MA Debt Collector
934164,"Midland Credit Management, Inc.",1103335,"Calle 42, Frente al Hotel Crown Plaza Piso 2-Sabana Norte, Merced",San Jose,,10102,DC934164,MA Debt Collector
934164,"Midland Credit Management, Inc.",1387283,"111 Franklin Road, SE Suite 400",Roanoke,VA,24011,DC934164,MA Debt Collector
934164,"Midland Credit Management, Inc.",1397172,320 E. Big Beaver Road Ste. 300,Troy,MI,48083,DC934164,MA Debt Collector
934164,"Midland Credit Management, Inc.",1517025,"Ground Floor to Third Floor Tower 8, Candor TechSpace, IT/TES SEZ, Sector 48, Tikri, Gurgaon",Haryana PN,,122018,DC934164,MA Debt Collector
934164,"Midland Credit Management, Inc.",1692055,4 East Rolling Crossroads Suites #307 ,Catonsville,MD,21228,DC934164,MA Debt Collector
1186374,"Moder Solutions, LLC",,"1980 N Atlantic Ave, Suite 216",Cocoa Beach,FL,32931,DC1186374,MA Debt Collector
948959,"Monarch Recovery Management, Inc.",,3260 Tillman Drive Suite 75,Bensalem,PA,19020,DC0622,MA Debt Collector
253155,Monterey Financial Services LLC,,4095 AVENIDA DE LA PLATA ,OCEANSIDE,CA,92056,DC0255,MA Debt Collector
107636,"Mortgage Assets Management, LLC",,14405 Walters Road Suite 200,Houston,TX,77014,DC107636,MA Debt Collector
944131,"MRS BPO, LLC",,1930 Olney Avenue ,Cherry Hill,NJ,08003,DC1187,MA Debt Collector
944131,"MRS BPO, LLC",1711630,4930 West State Highway 52 ,Taylor,AL,36305,DC944131,MA Debt Collector
944131,"MRS BPO, LLC",1971534,"Unit 102, Deekay Tech Park, Unit C99 MIDC, Turbhe",Navi Mumbai,,400705,DC944131,MA Debt Collector
1137104,MS SERVICES LLC,,637 W Yellowstone Highway ,Casper,WY,82601,DC1137104,MA Debt Collector
836952,"National Asset Mortgage, LLC",,4350 St. Andrews Rd Suite F,Columbia,SC,29210,DC836952,MA Debt Collector
929741,"National Collection Systems, Inc.",,"10845 Olive Blvd., Suite 210 ",St. Louis,MO,63141,DC0807,MA Debt Collector
931967,National Commercial Services,,6644 Valjean Avenue Ste 100,Van Nuys,CA,91406,DC112005-101,MA Debt Collector
939618,"National Credit Systems, Inc.",,1775 The Exchange SE  Suite 300 ,Atlanta,GA,30339,DC1298,MA Debt Collector
985520,National Creditors Connection Inc.,,10639 Professional Circle ,Reno,NV,89521,DC1273,MA Debt Collector
942637,"National Enterprise Systems, Inc.",,29125 Solon Road ,Solon,OH,44139,DC0691,MA Debt Collector
942637,"National Enterprise Systems, Inc.",1439871,2479 Edison Boulevard Unit A,Twinsburg,OH,44087,DC942637,MA Debt Collector
934169,"National Recovery Solutions, LLC",,6425 Dysinger Rd. ,Lockport,NY,14094,DC1264,MA Debt Collector
2119,Nationstar Mortgage LLC,,8950 Cypress Waters Boulevard ,Dallas,TX,75019,DC2119,MA Debt Collector
2119,Nationstar Mortgage LLC,,8950 Cypress Waters Boulevard ,Dallas,TX,75019,DC2119,MA Debt Collector Other Trade Name #1
2119,Nationstar Mortgage LLC,,8950 Cypress Waters Boulevard ,Dallas,TX,75019,DC2119,MA Debt Collector Other Trade Name #2
2119,Nationstar Mortgage LLC,,8950 Cypress Waters Boulevard ,Dallas,TX,75019,DC2119,MA Debt Collector Other Trade Name #3
2119,Nationstar Mortgage LLC,1059564,140 N. Arizona Avenue Suite 200,Chandler,AZ,85225,DC2119,MA Debt Collector
2119,Nationstar Mortgage LLC,1070512,25500 Commercentre Drive ,Lake Forest,CA,92630,DC2119,MA Debt Collector
2119,Nationstar Mortgage LLC,1520199,110 Triple Creek Drive Suite 10,Longview,TX,75601,DC2119,MA Debt Collector
2119,Nationstar Mortgage LLC,1699824,2780 Lake Vista Drive ,Lewisville,TX,75067,DC2119,MA Debt Collector
2119,Nationstar Mortgage LLC,1699826,800 State Highway 121 Bypass ,Lewisville,TX,75067,DC2119,MA Debt Collector
2119,Nationstar Mortgage LLC,1949490,"750 State Highway 121 Bypass, Suite 101 ",Lewisville,TX,75067,DC2119,MA Debt Collector
2119,Nationstar Mortgage LLC,2331007,4425 Ponce de Leon Blvd 5th Floor,Coral Gables,FL,33146,DC2119,MA Debt Collector
2119,Nationstar Mortgage LLC,2486713,2000 N Classen Blvd. Suite N3400,Oklahoma City,OK,73106,DC2119,MA Debt Collector
944152,Nationwide Credit Corporation,,5503 Cherokee Ave. ,Alexandria,VA,22312,DC0863,MA Debt Collector
945413,"Nationwide Recovery Service, Inc.",,545 W. Inman St. ,Cleveland,TN,37311,DC945413,MA Debt Collector
209072,"NCB Management Services, Inc.",,One Allied Drive ,Trevose,PA,19053,DC0616,MA Debt Collector
209072,"NCB Management Services, Inc.",894588,2517 E 54th St North ,Sioux Falls,SD,57104,DC209072,MA Debt Collector
209072,"NCB Management Services, Inc.",1010169,"8653 Baypine Rd, Ste 110 ",Jacksonville,FL,32256,DC209072,MA Debt Collector
209072,"NCB Management Services, Inc.",1721976,"1 Mangrove Way Freeport, St James",Montego Bay,,,DC209072,MA Debt Collector
209072,"NCB Management Services, Inc.",1840916,"4665 Innovation Drive, Suite 250 ",Lincoln,NE,68521,DC209072,MA Debt Collector
209072,"NCB Management Services, Inc.",2095298,"Lot M12-18 Southern Cross Blvd, Suite A4",Montego Bay,,,DC209072,MA Debt Collector
6606,"New American Funding, LLC",,"14511 Myford Road, Suite 100 ",Tustin,CA,92780,DC6606,MA Debt Collector
933108,"New Hampshire/Northeast Credit Services, Inc.",,35 Technology Way 3W5,Nashua,NH,03060,DC0305,MA Debt Collector
3013,NewRez LLC,,1100 Virginia Drive Suite 125,Fort Washington,PA,19034,DC3013,MA Debt Collector
3013,NewRez LLC,1105391,75 Beattie Place Suite 300,Greenville,SC,29601,DC3013,MA Debt Collector
3013,NewRez LLC,1105392,17000 Katy Freeway Suite 300,Houston,TX,77094,DC3013,MA Debt Collector
3013,NewRez LLC,1678604,55 Beattie Place Suite 600,Greenville,SC,29601,DC3013,MA Debt Collector
3013,NewRez LLC,1879565,2100 E Elliot Road Suite A,Tempe,AZ,85284,DC3013,MA Debt Collector
3013,NewRez LLC,2433062,1525 South Belt Line Road Suite 200,Coppell,TX,75019,DC3013,MA Debt Collector
3013,NewRez LLC,2549205,"9655 Granite Ridge Drive Suite 200, Office #2078",San Diego,CA,92123,DC3013,MA Debt Collector
952185,"Northstar Location Services, LLC",,4285 Genesee Street ,Cheektowaga,NY,14225,DC0878,MA Debt Collector
952185,"Northstar Location Services, LLC",1914034,517 North Barry Street ,Olean,NY,14760,DC952185,MA Debt Collector
934681,"NRA Group, LLC",,2491 Paxton Street ,Harrisburg,PA,17111,DC1118,MA Debt Collector
15877,Ocwen Financial Solutions Private Limited,,"5th Floor, South Block, Vaishnavi Tech Park Ambalipura Village, Varthur Hobli, Sarjapur Road",Bengaluru,,560035,DC15877,MA Debt Collector
15877,Ocwen Financial Solutions Private Limited,263383,"Paradigm Tower, A Wing, 8th Floor, Mindspace Malad Goregaon Link Road, Malad West",Mumbai,,400064,DC15877,MA Debt Collector
15877,Ocwen Financial Solutions Private Limited,1467776,"5th Floor, Marisoft Annex, Wing ‘C’, Kalyani Nagar Survey No.15/1/2/3/4/5/6, Plot No.1, Vadgaon Sheri",Pune,,411014,DC15877,MA Debt Collector
1849337,"Ocwen USVI Services, LLC",,"William D. Roebuck Industrial Park Bldg. 1, Suite 1-103A, 1 Estate Negro Bay",Frederiksted,VI,00840,DC1849337,MA Debt Collector
1418242,"One Advantage, LLC",,127 E Shore Parkway Suite A,LaPorte,IN,46350,DC1418242,MA Debt Collector
2390070,"One Touch Direct, LLC",,4902 West Sligh Avenue ,Tampa,FL,33634,DC2390070,MA Debt Collector
2390070,"One Touch Direct, LLC",2449796,CALLE 67# 7-35 5th Floor,Bogota,,110221,DC2390070,MA Debt Collector
937358,"OneMain Consumer Loan, Inc.",,601 NW Second St. ,Evansville,IN,47708,DC937358,MA Debt Collector
937358,"OneMain Consumer Loan, Inc.",1054465,725 Industrial Blvd. ,London,KY,40741,DC937358,MA Debt Collector
937358,"OneMain Consumer Loan, Inc.",1280260,"4920 S. Wendler Drive, Suite 202 ",Tempe,AZ,85282,DC937358,MA Debt Collector
931153,"OneMain Mortgage Services, Inc.",,601 NW Second St. ,Evansville,IN,47708,DC931153,MA Debt Collector
931153,"OneMain Mortgage Services, Inc.",1057006,725 Industrial Blvd. ,London,KY,40741,DC931153,MA Debt Collector
934287,"ONLINE Information Services, Inc.",,685 W Fire Tower Rd. ,Winterville,NC,28590,DC1263,MA Debt Collector
948477,"Optimum Outcomes, Inc.",,3200 Spring Forest Road Suite 220,Raleigh,NC,27616,DC113979-100,MA Debt Collector
934039,Optio Solutions LLC,,1444 North McDowell Blvd. ,Petaluma,CA,94954,DC1124,MA Debt Collector
934039,Optio Solutions LLC,,1444 North McDowell Blvd. ,Petaluma,CA,94954,DC934039,MA Debt Collector Other Trade Name #1
934039,Optio Solutions LLC,1370054,400 South 45th Street #427 ,Fargo,ND,58103,DC934039,MA Debt Collector
954491,"P&B Capital Group, LLC",,455 Center Road ,W Seneca,NY,14224,DC1198,MA Debt Collector
953436,"Pavilion Payments Check Services, LLC",,6215 West Howard Street ,Niles,IL,60714,DC1095,MA Debt Collector
943582,Penn Credit Corporation,,2800 Commerce Drive ,Harrisburg,PA,17110,DC0717,MA Debt Collector
943582,Penn Credit Corporation,1215663,100 Scenery Drive ,State College,PA,16801-7997,DC943582,MA Debt Collector
943582,Penn Credit Corporation,1215666,4636 E. University Drive Suite 200,Phoenix,AZ,85034-7411,DC943582,MA Debt Collector
35953,"PennyMac Loan Services, LLC",,3043 Townsgate Road Suite 200,Westlake Village,CA,91361,DC35953,MA Debt Collector
35953,"PennyMac Loan Services, LLC",364187,10550 West Charleston Boulevard Suite A,Las Vegas,NV,89135,DC35953,MA Debt Collector
35953,"PennyMac Loan Services, LLC",1065684,14800 Trinity Blvd. ,Fort Worth,TX,76155,DC35953,MA Debt Collector
35953,"PennyMac Loan Services, LLC",1166419,6101 Condor Drive Suite 200,Moorpark,CA,93021,DC35953,MA Debt Collector
35953,"PennyMac Loan Services, LLC",1481509,2201 West Plano Parkway Suites 150 and 300,Plano,TX,75075,DC35953,MA Debt Collector
1908478,"Perch Community Solar, LLC",,855 Boylston Street ,Boston,MA,02116,DC1908478,MA Debt Collector
1473260,"Peritus Portfolio Services II, LLC",,433 E Las Colinas Blvd Suite 475,Irving,TX,75039,DC1473260,MA Debt Collector
928903,"Peter Roberts & Associates, Inc.",,"231 East Main Street, Suite 201 ",Milford,MA,01757,DC0440,MA Debt Collector
2726,PHH Mortgage Corporation,,2000 Midlantic Drive Suite 410-A,Mount Laurel,NJ,08054,DC2726,MA Debt Collector
2726,PHH Mortgage Corporation,,2000 Midlantic Drive Suite 410-A,Mount Laurel,NJ,08054,DC2726,MA Debt Collector Other Trade Name #2
2726,PHH Mortgage Corporation,,2000 Midlantic Drive Suite 410-A,Mount Laurel,NJ,08054,DC2726,MA Debt Collector Other Trade Name #3
2726,PHH Mortgage Corporation,1837743,1661  Worthington Road Suite 100,West Palm Beach,FL,33409,DC2726,MA Debt Collector
2726,PHH Mortgage Corporation,1866508,"10951 White Rock Road, Suite 200 ",Rancho Cordova,CA,95670,DC2726,MA Debt Collector
2726,PHH Mortgage Corporation,2154031,"2ECBO060002, 6th floor Two E-com Bldg., Tower B. Harbor Drive Mall of Asia Complex",Pasay City,,01300,DC2726,MA Debt Collector
2726,PHH Mortgage Corporation,2214480,14405 Walters Road Suites 300-400,Houston,TX,77014,DC2726,MA Debt Collector
934578,"Phillips & Cohen Associates, Ltd.",,1002 Justison Street ,Wilmington,DE,19801,DC0536,MA Debt Collector
1163027,Phoenix Financial Services LLC,,11100 USA Parkway Suite B-100,Fishers,IN,46037,DC1163027,MA Debt Collector
939459,"PINNACLE RECOVERY, INC.",,2774 GATEWAY RD ,CARLSBAD,CA,92009,DC0704,MA Debt Collector
951914,"Pioneer Credit Recovery, Inc.",,26 Edward St ,Arcade,NY,14009,DC0397,MA Debt Collector
951914,"Pioneer Credit Recovery, Inc.",952789,"325 Daniel Zenker Drive, Suite 1 ",Horseheads,NY,14845,DC110989-108,MA Debt Collector
951914,"Pioneer Credit Recovery, Inc.",953707,308 W. Route 38 ,Moorestown,NJ,08057,DC1035,MA Debt Collector
951914,"Pioneer Credit Recovery, Inc.",953784,20 Parker Lane ,Perry,NY,14530,DC1037,MA Debt Collector
17022,"Planet Home Lending, LLC",,321 Research Parkway STE 303,Meriden,CT,06450,DC112046-100,MA Debt Collector
17022,"Planet Home Lending, LLC",,321 Research Parkway STE 303,Meriden,CT,06450,DC112046-100,MA Debt Collector Other Trade Name #1
17022,"Planet Home Lending, LLC",957081,3111 W Dr Martin Luther King Jr Blvd Suite 325,Tampa,FL,33607,DC17022,MA Debt Collector
17022,"Planet Home Lending, LLC",1281046,4120 Dublin Boulevard Suite 150,Dublin,CA,94568,DC17022,MA Debt Collector
17022,"Planet Home Lending, LLC",1539736,120 Erie Canal Drive Suite 240,Rochester,NY,14626,DC17022,MA Debt Collector
17022,"Planet Home Lending, LLC",1648330,5020 Riverside Drive Suite 300,Irving,TX,75039,DC17022,MA Debt Collector
934179,"Portfolio Recovery Associates, LLC",,120 Corporate Blvd. Suite 100,Norfolk,VA,23502,DC1025,MA Debt Collector
934179,"Portfolio Recovery Associates, LLC",946851,"400 Butler Farm Road, Ste 300 ",Hampton,VA,23666,DC1026,MA Debt Collector
934179,"Portfolio Recovery Associates, LLC",946852,500 West First Avenue ,Hutchinson,KS,67501,DC1024,MA Debt Collector
934179,"Portfolio Recovery Associates, LLC",946853,4829 Highway 45 North ,Jackson,TN,38305,DC1146,MA Debt Collector
934179,"Portfolio Recovery Associates, LLC",1141623,6341 Boulevard 26 Suite 500,North Richland Hills,TX,76118,DC934179,MA Debt Collector
934179,"Portfolio Recovery Associates, LLC",1694071,309 Huffman Mill Road Suite 180,Burlington,NC,27215,DC934179,MA Debt Collector
934179,"Portfolio Recovery Associates, LLC",1714816,130 Corporate Blvd. ,Norfolk,VA,23502,DC934179,MA Debt Collector
391089,"PRA Receivables Management, LLC",,130 Corporate Blvd ,Norfolk,VA,23502,DC0709,MA Debt Collector
391089,"PRA Receivables Management, LLC",1069466,"10 Orchard, Suite 100 ",Lake Forest,CA,92630,DC391089,MA Debt Collector
391089,"PRA Receivables Management, LLC",1828101,"8245 Tournament Dr., Suite 330 ",Memphis,TN,38125,DC391089,MA Debt Collector
995554,"Professional Account Management, LLC",,325 Daniel Zenker Drive Suite 4,Horseheads,NY,14845,DC995554,MA Debt Collector
903771,"Professional Debt Mediation, Inc",,8657 Baypine Road Suite 201 ,Jacksonville,FL,32256,DC903771,MA Debt Collector
936788,"Professional Finance Company, Inc.",,"5754 W. 11th Street, Suite 100 ",Greeley,CO,80634-4811,DC1115,MA Debt Collector
952197,PROFESSIONAL MANAGEMENT CORP.,,22 Atlantic Ave Unit 2E,Marblehead,MA,01945,DC0702,MA Debt Collector
945528,"Professional Placement Services, LLC",,272 N 12th Street ,Milwaukee,WI,53233,DC1101,MA Debt Collector
1120080,"Professional Service Bureau, Inc.",,911 Lund Blvd Suite 100,Anoka,MN,55303,DC1120080,MA Debt Collector
1273,Quantum Servicing Corporation,,8402 Laurel Fair Circle Suite 100,Tampa,FL,33610,DC1177,MA Debt Collector
920364,"R.A. Rogers, Inc.",,"2135 Espey Court, Suite 7 ",Crofton,MD,21114-2442,DC920364,MA Debt Collector
934272,"R.M. Galicia, Inc.",,1521 W. Cameron Avenue 1st Floor,West Covina,CA,91790,DC0753,MA Debt Collector
934272,"R.M. Galicia, Inc.",1126460,"6275 McLeod Drive, #2-4 ",las vegas,NV,89120,DC934272,MA Debt Collector
1390120,R.T.R. Financial Services Inc.,,"2 Teleport Drive, Suite 302 ",Staten Island,NY,10311,DC1390120,MA Debt Collector
936423,Radius Global Solutions LLC,,7831 Glenroy Rd. #250 ,Edina,MN,55439,DC0509,MA Debt Collector
936423,Radius Global Solutions LLC,1757649,"1111 Montgomery Street, Suite A",Decorah,IA,52101,DC936423,MA Debt Collector
936423,Radius Global Solutions LLC,1757655,9550 Regency Square Blvd. Suite 500,Jacksonville,FL,32225,DC936423,MA Debt Collector
936423,Radius Global Solutions LLC,1757666,"501 & 601 A Wing,  Supreme Business Park, Hiranand Suite 501, 601 & 701",Mumbai,,40076,DC936423,MA Debt Collector
936423,Radius Global Solutions LLC,1757667,11210 Thompson Avenue ,Lenexa,KS,66219,DC936423,MA Debt Collector
936423,Radius Global Solutions LLC,1757675,"Planta Baja, Centro Comercial Plaza Agora, Avenida Simon Bolivar (Transistmica)",Panama,,,DC936423,MA Debt Collector
936423,Radius Global Solutions LLC,1757676,500 North Franklin Turnpike Suite 315,Ramsey,NJ,07446,DC936423,MA Debt Collector
936423,Radius Global Solutions LLC,1829794,M12-18 Southern Cross Blvd. Montego Freeport,Montego Bay,,,DC936423,MA Debt Collector
936423,Radius Global Solutions LLC,2447863,3320 West Sahara Avenue Suite 200,Las Vegas,NV,89102,DCDC936423,MA Debt Collector
936423,Radius Global Solutions LLC,2447873,700 Turner Industrial Way Suite 160,Aston,PA,19014,DC936423,MA Debt Collector
936423,Radius Global Solutions LLC,2516919,"Low Ground Estate, Brown Hill St. John's Parish",Charlestown,,00265,DC936423,MA Debt Collector
1135875,"Ray Klein, Inc.",,400 International Way ,Springfield,OR,97477,DC1135875,MA Debt Collector
9745,"Real Time Resolutions, Inc.",,"1349 Empire Central Drive, Suite 150 ",Dallas,TX,75247,DC9745,MA Debt Collector
9745,"Real Time Resolutions, Inc.",1486458,"1951 West Camelback Road, Suite 115 ",Phoenix,AZ,85015,DC9745,MA Debt Collector
9745,"Real Time Resolutions, Inc.",1511963,"Bioprist Knowledge Park No. 1, 4th Floor 1 A Pimento Way","Freeport, Montego Bay",,W.I.,DC9745,MA Debt Collector
940587,Receivable Management Corporation,,400 West Cummings Park ste 4450 ,Woburn,MA,01801,DC0281,MA Debt Collector
953277,Receivable Management Service-Recovery Division LLC,,7350 Tilghman St Suite #300,Allentown,PA,18106,DC1233,MA Debt Collector
953277,Receivable Management Service-Recovery Division LLC,985242,"1250 East Diehl Rd., Suite 300 ",Naperville,IL,60563,DC1239,MA Debt Collector
953277,Receivable Management Service-Recovery Division LLC,985246,317 North Main Street ,Pueblo,CO,81003,DC1241,MA Debt Collector
953277,Receivable Management Service-Recovery Division LLC,985249,4836 Brecksville Road ,Richfield,OH,44286,DC1242,MA Debt Collector
953277,Receivable Management Service-Recovery Division LLC,985254,"A-154A, Sector 63 ",Noida UP,,201 301,DC1244,MA Debt Collector
953277,Receivable Management Service-Recovery Division LLC,1395743,77 Hartland Street Suite 403,East Hartford,CT,06108,DC953277,MA Debt Collector
936243,"Receivables Management Associates, Inc.",,"100 Cummings Center, Suite 309-J ",Beverly,MA,01915,DC0118,MA Debt Collector
1087556,"Receivables Management Partners, LLC",,8085 Knue Road ,Indianapolis,IN,46250,DC1087556,MA Debt Collector
1087556,"Receivables Management Partners, LLC",1677371,2250 E. Devon Avenue Suite 352,Des Plaines,IL,60018,DC1087556,MA Debt Collector
1087556,"Receivables Management Partners, LLC",1677375,5045 Franklin Ave ,Waco,TX,76710,DC1087556,MA Debt Collector
1087556,"Receivables Management Partners, LLC",1697744,"8155 Executive Court, Suite 10 ",Lansing,MI,48917,DC1087556,MA Debt Collector
1087556,"Receivables Management Partners, LLC",1922873,200 14th Avenue East ,Sartell,MN,56377,DC1087556,MA Debt Collector
1087556,"Receivables Management Partners, LLC",2080277,"4135 South Stream Blvd, Suite 400 ",Charlotte,NC,28217,DC1087556,MA Debt Collector
1087556,"Receivables Management Partners, LLC",2442715,20220 Center Ridge Road Ste 200 ,Rocky River,OH,44116,DC1087556,MA Debt Collector
1126626,"Receivables Outsourcing, LLC",,"3300 Rider Trail South, Suite 600 ",Earth City,MO,63045,DC1126626,MA Debt Collector
1126626,"Receivables Outsourcing, LLC",1268531,"25001 Emery Road, Suite 250 ",Warrensville Heights,OH,44128,DC1126626,MA Debt Collector
1513905,Recovery Management Solutions LLC,,485 Cayuga Rd. Ste 402 ,Cheektowaga,NY,14225,DC1513905,MA Debt Collector
938848,"Reliant Capital Solutions, LLC",,670 Cross Pointe Road ,Gahanna,OH,43230,DC1351,MA Debt Collector
934193,"Remex, Inc.",,307 Wall St. ,Princeton,NJ,08540,DC0607,MA Debt Collector
1577947,RENT RECOVERY SOLUTIONS LLC,,1945 The Exchange SE Ste 120 ,Atlanta,GA,30339,DC1577947,MA Debt Collector
980133,"RentDebt Automated Collections, LLC",,304 Northcreek Blvd ,Goodlettsville,TN,37072,DC980133,MA Debt Collector
1163074,"Republic Equity Credit Services, Inc.",,307 N. Michigan Ave. ,Chicago,IL,60601,DC1163074,MA Debt Collector
2073234,"Resident Advocate, LLC",,4620 Woodland Corporate Boulevard ,Tampa,FL,33614,DC2073234,MA Debt Collector
2301,Resurgent Capital Services L.P.,,55 Beattie Place Suite 110,Greenville,SC,29601,DC0626,MA Debt Collector
237755,"Revco Solutions, Inc.",,7016 A.C. Skinner Parkway  Suite 160 ,"Jacksonville, FL 32256",FL,32256,DC0538,MA Debt Collector
237755,"Revco Solutions, Inc.",951119,1161 East Clark Road Suite 240,Dewitt,MI,48820,DC1285,MA Debt Collector
237755,"Revco Solutions, Inc.",951646,6450 Poe Avenue Suite 301,Dayton,OH,45414,DC111050-106,MA Debt Collector
237755,"Revco Solutions, Inc.",2023736,"2700 Meridian Parkway, Suite 200 ",Durham,NC,27713,DC237755,MA Debt Collector
237755,"Revco Solutions, Inc.",2330684,5807 N 102nd Street ,Omaha,NE,68134,DC237755,MA Debt Collector
931231,"RGS Financial,Inc.",,1700 Jay Ell Dr. Suite 200,"Richardson,",TX,75081-6788,DC0950,MA Debt Collector
932084,"RMS - Recovery Management Services, Inc.",,"4200 Cantera Drive, Suite 211 ",Warrenville,IL,60555,DC112671-100,MA Debt Collector
1758660,"Roadrunner Account Services, LLC",,"4851 Regent Blvd., Suite 100 ",Irving,TX,75063,DC1758660,MA Debt Collector
3030,"Rocket Mortgage, LLC",,1050 Woodward Avenue ,Detroit,MI,48226,DC112727-100,MA Debt Collector
18188,RoundPoint Mortgage Servicing LLC,,446 Wrenplace Road ,Fort Mill,SC,29715,DC1207,MA Debt Collector
1135103,"Rozlin Financial Group, Inc.",,1628 DeKalb Ave ,Sycamore,IL,60178,DC1135103,MA Debt Collector
931920,"RUI Credit Services, Inc.",,1305 Walt Whitman Road ,Melville,NY,11747,DC0811,MA Debt Collector
185729,Rushmore Loan Management Services LLC,,"11511 Luna Road, Suite 625 ",Farmers Branch,TX,75234,DC1332,MA Debt Collector
943252,"SACOR FINANCIAL, INC",,2270 Douglas Blvd ,Roseville,CA,95661,DC112852-100,MA Debt Collector
934289,"Sage Capital Recovery, LLC",,401 Minnetonka Road ,Hi-Nella,NJ,08083,DC1291,MA Debt Collector
1750487,Salary Finance Inc,,77 Sleeper Street ,Boston,MA,02210,DC1750487,MA Debt Collector
4239,Santander Consumer USA Inc.,,1601 Elm Street Suite 800,Dallas,TX,75201,DC4239,MA Debt Collector
4239,Santander Consumer USA Inc.,198874,"5201 Rufe Snow Drive, Ste. 100 ",North Richland Hills,TX,76180,DC4239,MA Debt Collector
1008832,"Sarma Collections, Inc.",,555 E. Ramsey ,San Antonio,TX,78216,DC1008832,MA Debt Collector
1133332,"Seattle Service Bureau, Inc.",,18912 North Creek Parkway Suite 205,Bothell,WA,98011,DC1133332,MA Debt Collector
1133332,"Seattle Service Bureau, Inc.",2112971,6409 Parkland Dr Ste 101,Sarasota,FL,34243,DC1133332,MA Debt Collector
998772,Second Round Limited Partnership,,1701 Directors Blvd Suite 900 ,Austin,TX,78744,DC998772,MA Debt Collector
1009856,"Security Credit Services, LLC",,306 Enterprise Drive ,Oxford,MS,38655,DC1009856,MA Debt Collector
934921,"Security Credit Systems, Inc.",,100 River Rock Drive Suite 200,Buffalo,NY,14207,DC110954-103,MA Debt Collector
3114,"Select Portfolio Servicing, Inc.",,3217 South Decker Lake Drive ,West Valley City,UT,84119,DC0624,MA Debt Collector
3114,"Select Portfolio Servicing, Inc.",20724,"10401 Deerwood Park Blvd. Building 2, 2nd Floor",Jacksonville,FL,32256,DC3114,MA Debt Collector
6312,Selene Finance LP,,"3501 Olympus Blvd. Suite 500, 5th Floor",Dallas,TX,75019,DC6312,MA Debt Collector
6312,Selene Finance LP,333072,8201 Cypress Plaza Drive ,Jacksonville,FL,32256,DC6312,MA Debt Collector
6312,Selene Finance LP,2184452,"10808 S. River Front Parkway, Suite 200",South Jordan,UT,84095,DC6312,MA Debt Collector
41578,Seneca Mortgage Servicing LLC,,"48 South Main Street, Suite 1 ",Newtown,CT,06470,DC1255,MA Debt Collector
928908,"Sentry Credit, Inc",,2809 Grand Ave ,Everett,WA,98201,DC0981,MA Debt Collector
1535231,"Sequium Asset Solutions, LLC",,1130 Northchase Parkway Suite 150,Marietta,GA,30067,DC1535231,MA Debt Collector
1416616,"Sequoia Concepts, Inc.",,"28632 Roadside Drive, Suite 115 ",Agoura Hills,CA,91301,DC1416616,MA Debt Collector
140908,"Service Finance Company, LLC",,555 South Federal Highway Suite 200,Boca Raton,FL,33432,DC140908,MA Debt Collector
1687766,"ServiceMac, LLC",,"9726 Old Bailes Road, Suite 200 ",Fort Mill,SC,29707,DC1687766,MA Debt Collector
38078,"Servis One, Inc.",,4200 Regent Blvd Suite B200 ,Irving,TX,75063,DC112167-100,MA Debt Collector
38078,"Servis One, Inc.",126672,314 S. Franklin Street ,Titusville,PA,16354,DC112167-101,MA Debt Collector
38078,"Servis One, Inc.",137661,11350 McCormick Road Ste 903,Hunt Valley,MD,21031,DC112167-102,MA Debt Collector
1788,"Sierra Pacific Mortgage Company, Inc.",,"950 Glenn Drive, Suite 150 ",Folsom,CA,95630,DC1205,MA Debt Collector
934292,"SIMM Associates, Inc.",,800 Pencader Drive ,Newark,DE,19702,DC0889,MA Debt Collector
149169,"Siwell, Inc.",,4212 50th Street ,Lubbock,TX,79413,DC149169,MA Debt Collector
5985,SN Servicing Corporation,,13702 Coursey Boulevard Building 1A,Baton Rouge,LA,70817,DC5985,MA Debt Collector
5985,SN Servicing Corporation,9785,323 Fifth Street ,Eureka,CA,95501,DC5985,MA Debt Collector
906134,"Source Receivables Management, LLC",,"4615 Dundas Drive, Suite 102 ",Greensboro,NC,27407,DC906134,MA Debt Collector
266274,"Sourcepoint, Inc.",,2330 Commerce Park Drive NE Suite 2,Palm Bay,FL,32905,DC266274,MA Debt Collector
266274,"Sourcepoint, Inc.",1584904,"No. 33 Old Mahabalipuram Road Navallur Village and Panchayat, Thiruporur Taluk","Chengalpet District, Chennai",,600130,DC266274,MA Debt Collector
266274,"Sourcepoint, Inc.",1729005,"22nd Floor, Century Diamond Towers Kalayaan Ave. cor, Salamanca St., Barangay",Makati City,,01200,DC266274,MA Debt Collector
948398,"Southwest Credit Systems, LP",,"4120 International Parkway, Suite 1100 ",Carrollton,TX,75007,DC948398,MA Debt Collector
89599,"Southwest Stage Funding, LLC",,2701 E. Insight Way Suite 150,Chandler,AZ,85286,DC89599,MA Debt Collector
2168,Specialized Loan Servicing LLC,,"6200 S. Quebec St., Suite 300 ",Greenwood Village,CO,80111,DC0851,MA Debt Collector
2168,Specialized Loan Servicing LLC,972456,"2900 S Diablo Way, Building A, Suite  100 ",Tempe,AZ,85282,DC2168,MA Debt Collector
1916692,"Spring Oaks Capital, LLC",,"1400 Crossways Blvd, Ste. 100B ",Chesapeake,VA,23320,DC1916692,MA Debt Collector
948017,"State Collection Service, Inc.",,2509 S.Stoughton Rd. ,Madison,WI,53716,DC0858,MA Debt Collector
948017,"State Collection Service, Inc.",1209554,600 Henry Avenue Suite 21 ,Beloit,WI,53511,DC948017,MA Debt Collector
948017,"State Collection Service, Inc.",1210388,628 North Street ,Geneva,IL,60134,DC948017,MA Debt Collector
132893,"Statebridge Company, LLC",,6061 South Willow Drive Suite 300,Greenwood Village,CO,80111,DC1301,MA Debt Collector
929085,"States Recovery Systems, Inc.",,2491 Sunrise Blvd ,Rancho Cordova,CA,95670,DC0721,MA Debt Collector
1423878,Statewide Credit Services Corp.,,36 Millwood Lane ,Merrick,NY,11566,DC1423878,MA Debt Collector
937350,"Stuart-Lippman and Associates, Inc.",,5447 E. 5th St #110 ,Tucson,AZ,85711,DC937350,MA Debt Collector
937350,"Stuart-Lippman and Associates, Inc.",2432819,601 Union Street Suite 1723,Seattle,WA,98101,DC937350,MA Debt Collector
3277,"Sun West Mortgage Company, Inc.",,18303 Gridley Rd. ,Cerritos,CA,90703,DC3277,MA Debt Collector
938371,"SUNRISE CREDIT SERVICES, INC",,8 Corporate Ctr Drive Suite 300,Melville,NY,11747,DC0461,MA Debt Collector
952000,Synergetic Communication Inc,,5450 NW Central # 220 ,Houston,TX,77092,DC0866,MA Debt Collector
1135006,Tata Consultancy Services (Philippines) Inc.,,"Bench Tower, 30th St Corner Rizal Dr, Cresent Pk West 5, Bonifacio Global City,",Taguig City,,01634,DC1135006,MA Debt Collector
1135006,Tata Consultancy Services (Philippines) Inc.,1720677,"eNtec 2 Tower, Lots 1-18, Block 24, Plaridel St., Corner Catalina St., Nepo Center",Angeles City,,02009,DC1135006,MA Debt Collector
1135006,Tata Consultancy Services (Philippines) Inc.,1720692,"Panorama Tower, 34th St. Corner Lane A ",Bonifacio Global City,,01634,DC1135006,MA Debt Collector
952002,"Tate & Kirlin Associates, Inc.",,"4800 Street Road, Suite 170 ",Feasterville-Trevose,PA,19053,DC1069,MA Debt Collector
934023,TCS e-Serve International Limited,,"3010 Lyndon B Johnson Fwy, Suite 400 ",Dallas,TX,75234,DC112042-100,MA Debt Collector
934023,TCS e-Serve International Limited,1696385,"VATIKA Business Park, Tower B, 3rd Floor Section 49, Sohna Road","Gurgaon, Haryana",,122018,DC934023,MA Debt Collector
934023,TCS e-Serve International Limited,1792150,"South Side, Block-2, Garima Park IT  SEZ, ",Gandhinagar Gujarat,,382010,DC934023,MA Debt Collector
934023,TCS e-Serve International Limited,1810194,"Cypress Building, Rajiv Gandhi Floor 2 #s 2, 3 & 4 InfoTech Park, MIDC SEZ Phase III Hinjewadi",Pune,,411057,DC934023,MA Debt Collector
934023,TCS e-Serve International Limited,1845950,"4270 Ivy Pointe Blvd, Suite 400 ",Cincinnati,OH,45245,DC934023,MA Debt Collector
1169295,"Terrill Outsourcing Group, LLC",,7776 S. Pointe Parkway West Suite 280 ,Phoenix,AZ,85044,DC1169295,MA Debt Collector
1169295,"Terrill Outsourcing Group, LLC",1959225,"9370 Studio Ct, Suite 110 ",Elk Grove,CA,95758,DC1169295,MA Debt Collector
932100,"The Allen Daniel Associates, Inc.",,158 Lexington Street ,Waltham,MA,02452,DC0080,MA Debt Collector
206836,The Cadle Company,,100 North Center Street ,Newton Falls,OH,44444-1321,DC1340,MA Debt Collector
948339,"The CBE Group, Inc.",,1309 Technology Parkway ,Cedar Falls,IA,50613,DC0768,MA Debt Collector
948339,"The CBE Group, Inc.",1061600,16th Floor W Fifth Avenue 5th Ave. Corner 32nd Street,"Bonifacio Global City, Taguig City Metro Manila",,01634,DC948339,MA Debt Collector
948339,"The CBE Group, Inc.",2076070,326 Dover Rd. ,Clarksville,TN,37042,DC948339,MA Debt Collector
932664,"The Commercial Collection Corporation of New York, Inc.",,34 Seymour St. ,Tonawanda,NY,14150,DC0420,MA Debt Collector
945358,"Thomas George Associates, Ltd.",,10 Larkfield Road ,East Northport,NY,11731,DC0746,MA Debt Collector
373899,"Todd, Bremer & Lawson, Inc.",,560 S. Herlong Ave. ,Rock Hill,SC,29732,DC0792,MA Debt Collector
950422,Transworld Systems Inc.,,"500 Virginia Dr., Suite 514 ",Ft Washington,PA,19034,DC0246,MA Debt Collector
950422,Transworld Systems Inc.,1105880,"150 n. Field Drive Two Conway Park, Suite 200",Lake Forest,IL,60045,DC950422,MA Debt Collector
950422,Transworld Systems Inc.,1105894,"Ortigas Center ISquare Building, 9th Floor 15 Meralco Avenue, Barangay, San Antonio",Pasig City,,01603,DC950422,MA Debt Collector
950422,Transworld Systems Inc.,1105939,"5th Floor Two Cyberpod Centris, South Tower, Eton Centris, EDSA Corner Quezon Avenue, Bgy. Pinyahan",Quezon City,,01101,DC950422,MA Debt Collector
950422,Transworld Systems Inc.,1130471,"33400 8th Ave. South, Suite 100 ",Federal Way,WA,98003,DC950422,MA Debt Collector
950422,Transworld Systems Inc.,1130511,2135 East Primrose Suite Q,Springfield,MO,65804,DC950422,MA Debt Collector
950422,Transworld Systems Inc.,1130692,220 Northpointe Pkwy ,Amherst,NY,14228,DC950422,MA Debt Collector
950422,Transworld Systems Inc.,1130703,"1105 Schrock Rd, Suite 300 ",Columbus,OH,43229,DC950422,MA Debt Collector
950422,Transworld Systems Inc.,1166251,802 East Martintown Road Suite 201,North Augusta,SC,29841,DC950422,MA Debt Collector
950422,Transworld Systems Inc.,1743640,"Metro Office Park, 18 Calle 1, Ste. 101 ",Guaynabo,PR,00968,DC950422,MA Debt Collector
950422,Transworld Systems Inc.,2090635,10900 Corporate Centre Drive Suite 100C,Houston,TX,77041,DC950422,MA Debt Collector
950422,Transworld Systems Inc.,2098077,6506 S. Lewis Ave. #260A ,Tulsa,OK,74136,DC950422,MA Debt Collector
950422,Transworld Systems Inc.,2373419,75 Valley Oak Drive ,Somerset,KY,42503,DC950422,MA Debt Collector
950422,Transworld Systems Inc.,2375897,700 Longwater Drive ,Norwell,MA,02061,DC950422,MA Debt Collector
950422,Transworld Systems Inc.,2376133,4099 McEwen Road Suite 700,Dallas,TX,75244,DC950422,MA Debt Collector
950422,Transworld Systems Inc.,2438629,2101 West Peoria Avenue Suite 150B,Phoenix,AZ,85029,DC950422,MA Debt Collector
950422,Transworld Systems Inc.,2467014,"Vishwaroop IT Park, 7th Floor, Sector-30A, Vashi ","Navi Mumbai, Maharashtra",,400705,DC950422,MA Debt Collector
950422,Transworld Systems Inc.,2469557,"2nd Floor, Techweb Centre New Link Road, Oshiwara, Jogeshwari West",Mumbai,,400102,DC950422,MA Debt Collector
950422,Transworld Systems Inc.,2541803,5300 Kings Island Drive ,Mason,OH,45040,DC950422,MA Debt Collector
1086778,"Tri-State Adjustments, Inc.",,3439 East Avenue South ,LaCrosse,WI,54601,DC1086778,MA Debt Collector
997459,"TriVerity, Inc.",,26263 Forest Blvd ,Wyoming,MN,55092,DC997459,MA Debt Collector
920823,"TRS Recovery Services, Inc.",,1600 Terrell Mill Rd ,Marietta,GA,30067,DC0331,MA Debt Collector
920823,"TRS Recovery Services, Inc.",2449308,4000 Coral Ridge Drive ,Coral Springs,FL,33065,DC920823,MA Debt Collector
1374720,TrueAccord Corp.,,16011 College Blvd. Suite 130,Lenexa,KS,66219,DC1374720,MA Debt Collector
284608,"TruHome Solutions, LLC",,9601 Legler Road ,Lenexa,KS,66219,DC284608,MA Debt Collector
986335,"Turnstile Capital Management, LLC",,402 West Broadway Suite 2000,San Diego,CA,92101,DC986335,MA Debt Collector
986335,"Turnstile Capital Management, LLC",1087061,5109 S. Broadband Lane Suite 400,Sioux Falls,SD,57108,DC986335,MA Debt Collector
976731,Unifin Inc.,,"5996 W Touhy Ave., Ste 2000 ",Niles,IL,60714,DC976731,MA Debt Collector
938362,Unifund Corporation,,10625 Techwoods Circle ,Cincinnati,OH,45242,DC1185,MA Debt Collector
936787,"Unique Management Services, Inc",,119 East Maple Street ,Jeffersonville,IN,47130,DC0587,MA Debt Collector
931168,"United Collection Bureau, Inc.",,5620 Southwyck Blvd ,Toledo,OH,43614,DC0670,MA Debt Collector
931168,"United Collection Bureau, Inc.",933228,9078 State Road 84 ,Ft Lauderdale,FL,33324,DC111109-103,MA Debt Collector
931168,"United Collection Bureau, Inc.",934896,5640 Southwyck Blvd ,Toledo,OH,43614,DC111109-102,MA Debt Collector
931168,"United Collection Bureau, Inc.",990033,"700 Noreste de la Interseccion de Real Cariari Zona Franca Ultrapark I, Edificio 6B, Piso 1","La Aurora, Heredia",,00000,DC931168,MA Debt Collector
931168,"United Collection Bureau, Inc.",1732481,200 Patrol Road #300 ,Jeffersonville,IN,47130,DC931168,MA Debt Collector
1405982,"United Resource Systems, Inc.",,3501 S Teller St ,Lakewood,CO,80235,DC1405982,MA Debt Collector
2269497,"Universal Component Lender Services, Inc.",,"101 Corporate Place Third Floor, Suite 300",Rocky Hill,CT,06067,DC2269497,MA Debt Collector
936789,UNIVERSAL FIDELITY LP,,1400 Ravello Ste N210 ,HOUSTON,TX,77449,DC936789,MA Debt Collector
1548935,"Upgrade, Inc.",,275 Battery Street Suite 2300,San Francisco,CA,94111,DC1548935,MA Debt Collector
1548935,"Upgrade, Inc.",1955422,2 N Central Ave 10th Floor,Phoenix,AZ,85004,DC1548935,MA Debt Collector
934300,USCB Corporation,,761 Scranton Carbondale Highway Hillside Plaza Unit 6,Eynon,PA,18403,DC112632-100,MA Debt Collector
1673087,"USCB, Inc.",,355 South Grand Avenue Suite 3200,Los Angeles,CA,90071,DC1673087,MA Debt Collector
1399637,"Valentine & Kebartas, LLC",,15 Union St Suite 202,Lawrence,MA,01840,DC1399637,MA Debt Collector
1907140,"Valon Mortgage, Inc.",,"14647 S. 50th Street, Suite A-150 ",Phoenix,AZ,85044,DC1907140,MA Debt Collector
1800659,"Valor Intelligent Processing, LLC",,1750 Wells Road ,Orange Park,FL,32073,DC1800659,MA Debt Collector
1561,"Vanderbilt Mortgage and Finance, Inc.",,500 Alcoa Trail ,Maryville,TN,37804,DC1561,MA Debt Collector
922827,"Velocity Investments, L.L.C.",,"1800 Route 34 North Bldg #3, Suite 305",Wall,NJ,07719,DC1168,MA Debt Collector
920359,"Vengroff Williams, Inc.",,2211 Fruitville Rd ,SARASOTA,FL,34237,DC920359,MA Debt Collector
920359,"Vengroff Williams, Inc.",1111726,2099 S State College Blvd # 300 ,Anaheim,CA,92806,DC920359,MA Debt Collector
1110590,Veripro Solutions Inc.,,800 State Highway 121 Bypass Office L4W2-PRJ,Lewisville,TX,75067,DC1110590,MA Debt Collector
1909062,Vervent Inc.,,10182 Telesis Ct Suite 300,San Diego,CA,92121,DC1909062,MA Debt Collector
1909062,Vervent Inc.,1913994,Av. De Los Insurgentes 1200 ,"Lago Sur, Baja California",,22500,DC1909062,MA Debt Collector
1909062,Vervent Inc.,2098262,2700 S Lorraine Place ,Sioux Falls,SD,57106,DC1909062,MA Debt Collector
954098,"Viking Client Services, LLC",,10050 Crosstown Circle Suite 300,Eden Prairie,MN,55344,DC0506,MA Debt Collector
3317,Village Capital & Investment LLC,,2550 Paseo Verde Parkway Suite 100,Henderson,NV,89074,DC3317,MA Debt Collector
936785,"VIRTUOSO SOURCING GROUP, LLC.",,4500 CHERRY CREEK DRIVE SOUTH SUITE 500 ,Glendale,CO,80246,DC114130-100,MA Debt Collector
936785,"VIRTUOSO SOURCING GROUP, LLC.",1707869,309 West Elliot Road #101 ,Tempe,AZ,85284,DC936785,MA Debt Collector
922829,"Vital Recovery Services, LLC",,"4775 Peachtree Industrial Blvd., Ste. 310",Berkeley Lake,GA,30092,DC0818,MA Debt Collector
1048033,"Wakefield & Associates, LLC",,830 E. Platte Ave Suite A,Fort Morgan,CO,80701,DC1048033,MA Debt Collector
1048033,"Wakefield & Associates, LLC",1115406,3033 South Parker Rd Suite 1010,Aurora,CO,80014,DC1048033,MA Debt Collector
1048033,"Wakefield & Associates, LLC",1412820,3702 W. Truman Blvd. Suite 104,Jefferson City,MO,65109,DC1048033,MA Debt Collector
1048033,"Wakefield & Associates, LLC",1582206,7005 Middlebrook Pike ,Knoxville,TN,37909,DC1048033,MA Debt Collector
1048033,"Wakefield & Associates, LLC",2186840,De La Rotonda Centroamerica 300 mts abajo edificio Nestrix,Managua,,,DC1048033,MA Debt Collector
1048033,"Wakefield & Associates, LLC",2407907,1105 Schrock Road Suite 700,Columbus,OH,43229,DC1048033,MA Debt Collector
922824,"Waterfall Revenue Group, Inc.",,2297 Highway 33 Suite 906,Hamilton Square,NJ,08690-1717,DC1103,MA Debt Collector
908757,"Waypoint Resource Group, LLC",,8625 Crown Crescent Court Suite 200,Charlotte,NC,28227,DC908757,MA Debt Collector
1235300,"Webcollex, LLC",,510 Independence Pkwy. Suite 300,Chesapeake,VA,23320,DC1235300,MA Debt Collector
943740,"Weltman, Weinberg & Reis Co., L.P.A.",,965 Keynote Circle ,Brooklyn Heights,OH,44131,DC1016,MA Debt Collector
943740,"Weltman, Weinberg & Reis Co., L.P.A.",950607,965 Keynote Circle ,Brooklyn Heights,OH,44131,DC1020,MA Debt Collector
943740,"Weltman, Weinberg & Reis Co., L.P.A.",950631,525 Vine Street Suite 1020,Cincinnati,OH,45202,DC1019,MA Debt Collector
943740,"Weltman, Weinberg & Reis Co., L.P.A.",950848,5000 Bradenton Avenue Suite 100,Dublin,OH,43017,DC1021,MA Debt Collector
150525,"West Coast Servicing, Inc.",,7911 Warner Ave. ,Huntington Beach,CA,92647,DC1329,MA Debt Collector
150525,"West Coast Servicing, Inc.",1467191,18831 Von Karman Ave Suite 380 ,irvine,CA,92612,DC150525,MA Debt Collector
925624,WESTERN MASS CREDIT CORP.,,2040 BOSTON ROAD ,WILBRAHAM,MA,01095,DC0727,MA Debt Collector
1745247,"Westlake Portfolio Management, LLC",,"4751 Wilshire Blvd., Suite 100 ",Los Angeles,CA,90010,DC1745247,MA Debt Collector
1573373,"Wilber Insurance Services Enterprise, Inc.",,210 Landmark Dr. ,Normal,IL,61761,DC1573373,MA Debt Collector
952151,"Williams & Fudge, Inc.",,300 Chatham Avenue ,Rock Hill,SC,29730,DC0752,MA Debt Collector
1431632,Yes Online Inc,,25600 Rye Canyon Road Suite 209 ,Santa Clarita,CA,91355,DC1431632,MA Debt Collector
931924,Zeger Corp,,"766 Route 28, Unit 9A ",Mashpee,MA,02649,DC0159,MA Debt Collector
1009851,"Zenta Recoveries, Inc.",,1201 Wilson Boulevard ,Arlington,VA,22209,DC1009851,MA Debt Collector
1359207,ZuntaFi Corp,,105 1st Ave SW ,Aberdeen,SD,57401,DC1359207,MA Debt Collector
